Provider Name,City,State/Territory,County,Region Name,Address 1,Address 2,Zip,Phone,Ext.,Fax,Current Provider Urbanicity
 MGC-Family Medicine Chesnee Highway,Gaffney,SC,CHEROKEE,Upstate,517 CHESNEE HWY,STE A,29341,864-487-7655,,864-487-8718,Micropolitan
" Premier Pediatrics of Sumter, LLC",Sumter,SC,SUMTER,Pee Dee ,380 W Wesmark Blvd Unit B,,29150,803-607-9430,,803-607-9431,Small metro
ABBEVILLE COUNTY HEALTH DEPARTMENT,Abbeville,SC,ABBEVILLE,Upstate,905 W GREENWOOD ST,,29620,864-366-2131,,864-366-4105,Micropolitan
ADOLESCENT MEDICINE,Greenville,SC,GREENVILLE,Upstate,1350 CLEVELAND STREEET,,29607,864-522-4888,,864-522-4885,Medium metro
Affinity Health Center Clover,Clover,SC,YORK,Midlands ,300 CLINTON AVE,,29710,(803)909-9748,,(803)909-6364,Large fringe metro
Affinity Health Center Main Office,Rock Hill,SC,YORK,Midlands ,500 Lakeshore PKWY,,29730,803-909-6363,9748,803-909-6364,Large fringe metro
Affinity Health Center York,York,SC,YORK,Midlands ,37 PINCKNEY ST,,29745,(803) 909-9748,,(803)909-6364,Large fringe metro
AIKEN CENTER FOR FAMILY HEALTH,Aiken,SC,AIKEN,Midlands ,415 Barnwell AVE NW,,29801,803-644-4403,,(803)644-4405,Medium metro
AIKEN COUNTY HEALTH DEPARTMENT,Aiken,SC,AIKEN,Midlands ,222 BEAUFORT ST NE,,29801,(803)642-1687,,(803)643-4018,Medium metro
Aiken Regional Medical Centers,Aiken,SC,AIKEN,Midlands ,302 University PKWY,,29801,803-641-5875,,803-641-5811,Medium metro
Aiken Specialty Services ,Aiken,SC,AIKEN,Midlands ,209 Abbeville Ave. NW,,29801,8033061433,,8036321209,Medium metro
All Children Pediatrics,Ridgeland,SC,JASPER,LowCountry,11382 N Jacob Smart BLVD,,29936,843-645-9797,,(843)645-9798,Small metro
ALL CHILDRENS PEDIATRICS,Beaufort,SC,BEAUFORT,LowCountry,960 Ribaut Rd. STE 1,,29902,843-522-3870,,,Small metro
ALLENDALE COUNTY HEALTH DEPARTMENT,Allendale,SC,ALLENDALE,LowCountry,571 MEMORIAL AVE N,,29810,803-584-3818,,(803)584-8107,Non-Core
ALLERGY & ASTHMA CONSULTANTS,MOUNT PLEASANT,SC,CHARLESTON,LowCountry,180 WINGO WAY,STE 102,29464-0000,8438812030,,,Medium metro
ALLERGY & ASTHMA CONSULTANTS,CHARLESTON,SC,CHARLESTON,LowCountry,2270 ASHLEY XING,STE 150,29414-0000,843-556-9588,,,Medium metro
ALLERGY & ASTHMA CONSULTANTS,SUMMERVILLE,SC,DORCHESTER,LowCountry,102 MORGAN PL,,29485,8438329588,,,Medium metro
AMERICARE HEALTH  PC,PAGELAND,SC,CHESTERFIELD,Pee Dee ,905 N PEARL ST,,29728-0000,843-672-3100,,843-672-3102,Non-Core
ANDERSON COUNTY HEALTH DEPARTMENT,Anderson,SC,ANDERSON,Upstate,220 MCGEE RD,,29625,864-260-5633,,,Medium metro
ANDREWS MEDICAL CENTER,Andrews,SC,GEORGETOWN,Pee Dee ,701 S MORGAN Ave,,29510,843-264-5253,,(843)264-5970,Micropolitan
ANGEL OAK FAMILY MEDICINE,Johns Island,SC,CHARLESTON,LowCountry,1816 BOHICKET RD.SUITE F,,29455,843-559-1938,,,Medium metro
ANMED FAMILY FAMILY MEDICAL CENTER,Anderson,SC,ANDERSON,Upstate,2000 E GREENVILLE ST,STE 3700,29621,8645121475,,,Medium metro
ANMED HEALTH ANDERSON PEDIATRICS,Anderson,SC,ANDERSON,Upstate,705 N FANT ST,,29621,864-512-7034,,,Medium metro
ANMED HEALTH PEDIATRIC ASSOCIATES,Anderson,SC,ANDERSON,Upstate,2000 E GREENVILLE ST,STE 3000,29621,864-224-1055,,,Medium metro
ANMED HEALTH W AND C HOSPITAL,Anderson,SC,ANDERSON,Upstate,2000 E GREENVILLE ST,,29621,8645124686,,,Medium metro
ANMED HEALTH-WILLIAMSTON FAMILY MED,Williamston,SC,ANDERSON,Upstate,16 ROBERTS BLVD,,29697,864-847-7323,,,Medium metro
ANMED HLTH CAROLINA KIDS,Clemson,SC,PICKENS,Upstate,885 Tiger BLVD BLDG A,,29631,864-888-3020,,864-888-8585,Medium metro
ANMED PEDIATRICS FANT ST,Anderson,SC,ANDERSON,Upstate,500 N FANT ST,,29621,8642257798,,,Medium metro
AnMedHealth Anderson Family Medicine,Anderson,SC,ANDERSON,Upstate,2000 E Greenville ST STE 2000,,29621,864-260-1590,,864-260-1596,Medium metro
APEX CARE,Lugoff,SC,KERSHAW,Midlands ,116 Standard Warehouse Rd,,29078,803-408-0225,,803-408-0729,Medium metro
ATRIUM HEALTH LEVINE CHILDRENS - BAXTER,Fort Mill,SC,YORK,Midlands ,1154 CAROLINA PLACE DR,103,29708,704-667-0580,,704-667-0581,Large fringe metro
Aynor Family Medicine,Aynor,SC,HORRY,Pee Dee ,1213 ELM ST,,29511,843-234-7461,,843-358-9205,No Urbanicity Data
B  L FAMILY PRACTICE,Leesville,SC,LEXINGTON,Midlands ,608 E C0LUMBIA AVE,,29070,803-532-8155,,803.532.9685,Medium metro
Bailey Pediatrics,Mauldin,SC,GREENVILLE,,513 W Butler RD STE A,,29662,,,,Medium metro
BAILEY PEDIATRICS,MAULDIN,SC,GREENVILLE,Upstate,213 E BUTLER RD,,29662,864-434-2497,,864-458-3505,Medium metro
BALLENTINE PEDIATRICS  LLC,Irmo,SC,RICHLAND,Midlands ,11134 BROAD RIVER RD.,Ste D,29063,803-732-0920,,(803)227-2759,Medium metro
BAMBERG COUNTY HEALTH DEPARTMENT,Bamberg,SC,BAMBERG,LowCountry,370 LOG BRANCH RD,,29003,803-245-5176,,,Non-Core
BAPTIST EASLEY HOSPITAL,Easley,SC,PICKENS,Upstate,200 FLEETWOOD DR,,29640,864-442-8701,,864-442-7272,Medium metro
BAPTIST-EASLEY FAMILY PRACTICE,EASLEY,SC,PICKENS,Upstate,106 JOHN ST,,29640-0000,8648592220,,,Medium metro
BARNET PARK FAMILY MEDICINE,SPARTANBURG,SC,SPARTANBURG,Upstate,169 HALL ST,,29302,8645429966,,,Medium metro
BARNETT FAM PRACTICE CAROLINA LAKES,Indian Land,SC,LANCASTER,Midlands ,7666 CHARLOTTE HWY,STE 120,29707,803-431-8220,,803-431-8221,Large fringe metro
BARNWELL COUNTY HEALTH DEPARTMENT,Barnwell,SC,BARNWELL,Midlands ,11015 ELLENTON ST HWY 278,,29812,8035411061,,8035411066,Non-Core
BARNWELL FAMILY MEDICINE  PA,Barnwell,SC,BARNWELL,Midlands ,86 WREN ST,,29812,803-259-5762,,,Non-Core
BARNWELL PEDIATRICS,Barnwell,SC,BARNWELL,Midlands ,10706 MARLBORO AVE,,29812,803-259-7337,,,Non-Core
BEAUFORT COUNTY HEALTH DEPT B,Beaufort,SC,BEAUFORT,LowCountry,601 WILMINGTON ST,,29902,843-525-7615,,,Small metro
Beaufort Pediatrics P.A.,Beaufort,SC,BEAUFORT,LowCountry,964 RIBAUT RD,STE 1,29902,843-524-5437,,,Small metro
BEAUFORT-JASPER COMPRE HLH SERV.,Ridgeland,SC,JASPER,LowCountry,7190 OKATIE HWY 170,,29936,843-987-7400,,(843)987-5135,Small metro
BERKELEY FAMILY PRACTICE,Moncks Corner,SC,BERKELEY,LowCountry,2061 HWY 52,,29461,843-761-8800,,843-761-8824,Medium metro
Blue Ridge Pediatrics LLC,Seneca,SC,OCONEE,Upstate,457B By Pass 123,,29678,864-888-4464,,(864)888-4462,Micropolitan
BLUFFTON HEALTH DEPT.,Bluffton,SC,BEAUFORT,LowCountry,4819 BLUFFTON PKWY,,29910,843-757-2251,,,Small metro
BON SECOURS FAMILY MEDICAL CENTER,GREENVILLE,SC,GREENVILLE,Upstate,17 MEMORIAL MEDICAL DR,,29605,864-365-0225,,8643650235,Medium metro
BON SECOURS PELHAM ROAD MEDICAL PLAZA,Greenville,SC,GREENVILLE,Upstate,800 PELHAM RD,,29615,864-234-5800,,864-234-5886,Medium metro
Bon Secours Primary Care-Hwy 14,Greenville,SC,GREENVILLE,Upstate,3904 S HWY 14,,29615,864-987-9990,,888-372-4804,Medium metro
BON SECOURS ST FRANCIS HOSP PHARMACY,Charleston,SC,CHARLESTON,LowCountry,2095 HENRY TECKLENBURG DR,,29414,843-402-1417,,,Medium metro
Bradshaw Institute SBHC,Greenville,SC,GREENVILLE,Upstate,255 Enterprise Blvd Ste 110,,29615,864-454-2341,,864-454-1114,Medium metro
BROOKLAND COMMUNITY PEDIATRICS,West Columbia,SC,LEXINGTON,Midlands ,500 N 12TH ST,,29169,803-217-0415,,803-939-1650,Medium metro
BROOKLAND-CAYCE MEDICAL PRACTICE,Cayce,SC,LEXINGTON,Midlands ,1115 STATE ST,,29033,803-939-0174,,803-217-0282,Medium metro
BYRD MEDICAL ASSOCIATES LLC,Woodruff,SC,SPARTANBURG,Upstate,7280 C REIDVILLE RD,,29388,864-486-0760,,864-486-0761,Medium metro
CALHOUN COUNTY HEALTH DEPARTMENT,St. Matthews,SC,CALHOUN,LowCountry,2837 OLD BELLEVILLE RD,,29135,803-874-2037,,803-874-4693,Medium metro
Calhoun County Health Department (ALT),St. Matthews,SC,CALHOUN,LowCountry,101 Courthouse DR,,29135,803-874-2443,,803-874-2447,Medium metro
CALHOUN FALLS FAMILY PRACTICE CTR,Calhoun Falls,SC,ABBEVILLE,Upstate,535 JACKSON ST,,29628,864-418-8578,,,Micropolitan
CAMPBELL FAMILY PRACTICE  P.A.,Mullins,SC,MARION,Pee Dee ,2835 E HWY 76 STE 6,,29574,8434319882,,,Non-Core
CANNON FAMILY PRACTICE-LIBERTY,Liberty,SC,PICKENS,Upstate,105 LIBERTY BLVD,,29657,864-843-9213,,(864)843-5634,Medium metro
CARE SOUTH CAROLINA,Bishopville,SC,LEE,Pee Dee ,545 SUMTER HWY,,29010,803-484-5310,,803-484-4533,Non-Core
CARE SOUTH PEDIATRICS,Bennettsville,SC,MARLBORO,Pee Dee ,210 W MAIN ST,,29512,843-479-1200,,843-479-1230,Micropolitan
CARES clinic,Mount Pleasant,SC,CHARLESTON,LowCountry,1145 Six Mile RD,,29466,843-876-7097,,843-876-8529,Medium metro
CARESOUTH CAROLINA,Hartsville,SC,DARLINGTON,Pee Dee ,1268 S 4TH ST,Ste C,29550,843-339-3035,3452,843-383-0385,Small metro
CareSouth Carolina  Inc.,Society Hill,SC,DARLINGTON,Pee Dee ,737 S Main ST,,29593,843-378-4501,,843-378-4209,Small metro
CareSouth Carolina Inc-Latta Center,Latta,SC,DILLON,Pee Dee ,122 Latimer ST,,29565,(843)627-6252,,(843)627-6271,Non-Core
CareSouth Carolina McColl,McColl,SC,MARLBORO,Pee Dee ,225 S Main ST,PO Box 86,29570,843-523-5751,,843-523-6040,Micropolitan
CARESOUTH CAROLINA-(BENN),BENNETTSVILLE,SC,MARLBORO,Pee Dee ,999 CHERAW ST,,29512,843-479-2341,,843-479-2346,Micropolitan
CARESOUTH- CHERAW CTR,Cheraw,SC,CHESTERFIELD,Pee Dee ,"715 S Doctors DR STE s A, B, D,E",,29520,(843)537-0961,,(843)537-0908,Non-Core
CARESOUTH- DILLON,Dillon,SC,DILLON,Pee Dee ,207 E MONROE St,,29536,(843)774-4337,,(843)774-4373,Non-Core
"Careteam, Inc",Conway,SC,HORRY,Pee Dee ,100 Professional Park DR,,29526,843-234-0005,,843-234-8235,Medium metro
CARING HEARTS PEDIATRICS  LLC,Hartsville,SC,DARLINGTON,Pee Dee ,518 E CAROLINA AVE,STE B,29550,843-383-4426,,843-383-8509,Small metro
CAROLINA FAMILY MEDICINE,Clinton,SC,LAURENS,Upstate,600 PLAZA CIR,,29325,864-938-9690,,,Medium metro
Carolina Family Medicine of Sumter,Sumter,SC,SUMTER,Pee Dee ,"115 N Sumter Stree,t STE 400",,29150,803-774-7425,,803-774-9426,Small metro
CAROLINA FAMILY MEDICINE-CHERAW,CHERAW,SC,CHESTERFIELD,Pee Dee ,715 S DOCTORS DR,Ste A,29520,8439214704,,,Non-Core
CAROLINA FAMILY PHYSICIANS,Spartanburg,SC,SPARTANBURG,Upstate,1690 SKYLYN DR,Ste 210,29307,8642538170,,(864)585-7787,Medium metro
Carolina Family Practice,Columbia,SC,RICHLAND,Midlands ,1410 Blanding St,STE 102,29201,803-256-2500,,,Medium metro
Carolina Family Services ,Greenville,SC,GREENVILLE,Upstate,17 Memorial Medical Dr,,29605,8642830637,,8642830637,Medium metro
CAROLINA FOREST FAMILY MEDICINE,MYRTLE BEACH,SC,HORRY,Pee Dee ,4022 POSTAL WAY,,29579,8432369925,,,Medium metro
Carolina Health  Wellness SRVCS,Johns Island,SC,CHARLESTON,LowCountry,2754 Maybank Hwy Unit B,,29455,843-996-4908,,843-962-5450,Medium metro
CAROLINA HEALTH CENTERS-BETHANY CENTER,Greenwood,SC,GREENWOOD,Upstate,924 BYPASS 25 NE,,29649,(864)396-5269,,(864)396-5269,Micropolitan
CAROLINA PEDIATRIC ASSOCIATES,Blacksburg,SC,CHEROKEE,Upstate,301 W PINE ST,,29702,864-839-4325,,864-839-9901,Micropolitan
Carolina Pediatric Associates-Gaffney,Gaffney,SC,CHEROKEE,Upstate,140 4th AVE,,29340,864-487-7337,,864-839-9901,Micropolitan
Carolina Pediatrics  P.A,Columbia,SC,RICHLAND,Midlands ,2113 Adams Grove RD STE 101,,29203,803-256-0531,,803-765-9052,Medium metro
CAROLINA PEDIATRICS & CAROLINA TEEN CTR,RIDGEVILLE,SC,DORCHESTER,LowCountry,105 SCHOOL ST,,29472,,,,Medium metro
Carolina Pediatrics at Rock Hill ,Rock Hill,SC,YORK,Midlands ,225 Herlong Ave S,Unit 201,29732,727-656-4704,,803-327-9998,Large fringe metro
CAROLINA PEDIATRICS OF GREENVILLE,Greenville,SC,GREENVILLE,Upstate,200 PATEWOOD DR,STE A120,29615,864-454-2670,,864-454-2679,Medium metro
CAROLINA PEDS PA IRMO,Irmo,SC,RICHLAND,Midlands ,1033 Kinley Rd.,,29063,803-376-2838,,803-781-7977,Medium metro
CAROLINA PINES REGIONAL MEDICAL CEN,Hartsville,SC,DARLINGTON,Pee Dee ,1304 W BOBO NEWSOM HWY.,,29550,843-339-4770,,843-339-4771,Small metro
Carolina Womens Specialists,Sumter,SC,SUMTER,Pee Dee ,319 N Main ST,,29150,803-774-6448,,803-774-8305,Small metro
Carolinas Medical Alliance Kingstree Primary Care,Kingstree,SC,WILLIAMSBURG,Pee Dee ,342 W Main ST,,29556,(843)355-3621,,(843)355-3624,Non-Core
CATAWBA SERVICE UNIT- IHS,Rock Hill,SC,YORK,Midlands ,2893 STURGIS RD,,29730,8033669090,,803-366-9141,Large fringe metro
Cayce-West Columbia Primary Care Center,West Columbia,SC,LEXINGTON,Midlands ,407 N Brown ST,,29169,(803)995-8936,,(803)999-1210,Medium metro
CENTER FOR FAMILY MEDICINE,Spartanburg,SC,SPARTANBURG,Upstate,853 N CHURCH ST,STE 510,29303,864-560-6193,,(864)560-0504,Medium metro
CENTER FOR FAMILY MEDICINE,Greenville,SC,GREENVILLE,Upstate,877 W FARIS RD,STE A,29605,864-455-9040,,864-455-3988,Medium metro
Center for Family Medicine-Greer,Greer,SC,GREENVILLE,Upstate,"109 Physicians DR , STE A",,29650,(864)797-9150,,(864)797-9155,Medium metro
Center for Family Medicine-Oconee,Seneca,SC,OCONEE,Upstate,139 Lila Doyle Dr,,29672,(864)482-3483,,(864)482-3449,Micropolitan
CENTER FOR PED MED- CHILDRENS HOSP,Greenville,SC,GREENVILLE,Upstate,20 MEDICAL RIDGE DR,,29605,864-220-7270,,864-220-7290,Medium metro
Center for Pediatric Medicine- West,Greenville,SC,GREENVILLE,Upstate,5 W Main ST,,29611,864-522-5300,,(864)220-7290,Medium metro
Center for Pediatrics,Spartanburg,SC,SPARTANBURG,Upstate,853 N CHURCH St,STE 401,29303,864-560-6287,,864-560-7091,Medium metro
Chapin Pediatrics  P.A.,Chapin,SC,LEXINGTON,Midlands ,723 Chapin Rd,,29036,8039322200,,,Medium metro
CHARLES TOWNE PEDIATRICS,CHARLESTON,SC,CHARLESTON,LowCountry,418 FOLLY RD,Ste A,29412-0000,843-747-4647,,843-745-0969,Medium metro
Charles Towne Pediatrics,North Charleston,SC,CHARLESTON,LowCountry,3800 Faber Place DR,,29405,843-747-4647,,843-745-0969,Medium metro
Charleston County Health Department,North Charleston,SC,CHARLESTON,LowCountry,3685 Rivers Ave,,29405,843-953-4300,,,Medium metro
CHARLESTON COUNTY HEALTH DEPT,CHARLESTON,SC,CHARLESTON,LowCountry,3 CHARLESTON CENTER DR,,29401,843-579-4500,,,Medium metro
CHARLESTON COUNTY HLTH DEPT.-CENTRA,Charleston,SC,CHARLESTON,LowCountry,4050 BRIDGE VIEW DR,STE 600,29405,843-214-0682,,843-953-0081,Medium metro
Charleston County School District,North Charleston,SC,CHARLESTON,LowCountry,3180 THOMASINA MCPHERSON,,29405,843-754-9179,,843-745-2182,Medium metro
Charleston Medical Associates,Charleston,SC,CHARLESTON,LowCountry,"1483 Tobias Gadson Blvd, STE 101",,29407,843-405-1110,,844-671-4124,Medium metro
Charleston Pediatrics,Charleston,SC,CHARLESTON,LowCountry,198 Rutledge Ave STE 1,,29403,8437230855,,,Medium metro
Cheraw Pediatrics,Cheraw,SC,CHESTERFIELD,Pee Dee ,119 CHESTERFIELD HWY,,29520,843-537-1811,,843-537-1802,Non-Core
CHEROKEE CHILDRENS CLINIC  PA,Gaffney,SC,CHEROKEE,Upstate,1307 N LOGAN ST,,29341,864-488-1333,,864-488-3004,Micropolitan
CHEROKEE COUNTY HEALTH DEPARTMENT,Gaffney,SC,CHEROKEE,Upstate,400 S LOGAN ST,,29341,864-487-2705,,8644872728,Micropolitan
CHEROKEE PEDIATRIC ASSOCIATES,Gaffney,SC,CHEROKEE,Upstate,1610B N Limestone St,,29340,864-487-7337,,864-839-9901,Micropolitan
CHESNEE CENTER FOR FAMILY MEDICINE,Chesnee,SC,SPARTANBURG,Upstate,702 S ALABAMA AVE,,29323,864-560-9100,,864-560-5305,Medium metro
CHESTER COUNTY HEALTH DEPT C,Chester,SC,CHESTER,Midlands ,129 WYLIE ST,,29706,803-385-6152,,803-581-3815,Large fringe metro
CHESTERFIELD COUNTY HEALTH DEPT.,Chesterfield,SC,CHESTERFIELD,Pee Dee ,203 N PAGE ST,,29709,843-623-2117,,843-623-3066,Non-Core
CHILDREN FIRST MEDICAL CENTER,LANCASTER,SC,LANCASTER,Midlands ,901 W MEETING ST,Ste 205,29720,8032834200,,,Large fringe metro
CHILDREN'S CLINIC-SIMPSONVILLE,SIMPSONVILLE,SC,GREENVILLE,Upstate,727 SE MAIN ST,STE 100,29681,864-454-6520,,,Medium metro
CHILDRENS CLINIC,Greer,SC,GREENVILLE,Upstate,325 MEDICAL PKWY,STE 150,29650,864-797-9300,,864-797-9302,Medium metro
Childrens Clinic PA,Indian Land,SC,LANCASTER,Midlands ,8351 Charlotte Hwy.,,29707,(803)289-5437,,,Large fringe metro
Childrens Clinic- Travelers Rest,Greenville,SC,GREENVILLE,Upstate,415 Duncan Chapel RD,,29617,864-522-2600,,864-522-2605,Medium metro
Childrens Medical Center,Travelers Rest,SC,GREENVILLE,Upstate,6527 State Park RD,,29690,(864)610-2108,,(864)610-2900,Medium metro
childrens medical center,Greenville,SC,GREENVILLE,Upstate,703 Verdae Blvd,,29607,864-288-5402,,864-234-7961,Medium metro
CHILDRENS MEDICAL CENTER  POWDERSV,Piedmont,SC,ANDERSON,Upstate,3455 Hwy 153,,29673,8642958811,,,Medium metro
CHILDRENS MEDICAL CENTER-GREER,Greer,SC,GREENVILLE,Upstate,841 S Buncombe Rd,,29650,864-877-1220,,864-877-7731,Medium metro
CHILDRENS MEDICAL CTR-SIMPSONVILLE,Simpsonville,SC,GREENVILLE,Upstate,307 N MAIN ST,,29681,864-228-8010,,864-228-8050,Medium metro
CHRISTIE PEDIATRIC GROUP,Greenville,SC,GREENVILLE,Upstate,9 MILLS AVE,,29605,864-522-8450,,864-522-8455,Medium metro
CHRISTIE PEDIATRIC GROUP,Greenville,SC,GREENVILLE,Upstate,3911 S Highway 14,,29615,864-522-1340,,864-522-1345,Medium metro
CLARENDON COUNTY HEALTH DEPARTMENT,Manning,SC,CLARENDON,Pee Dee ,110 E BOYCE ST,,29102,803-435-8168,,803-435-6825,Non-Core
CLARENDON MEMORIAL HOSPITAL,Manning,SC,CLARENDON,Pee Dee ,10 E HOSPITAL ST,,29102,8034353151,,,Non-Core
Clemson Primary Care,Clemson,SC,PICKENS,Upstate,101 Chapman Hill Rd,,29631,(864)653-4071,,(864)653-4074,Medium metro
CLEMSON SENECA PEDIATRICS,Clemson,SC,PICKENS,Upstate,450 Old Greenville Hwy,,29631,864-653-8964,,864-654-0342,Medium metro
CLEMSON SENECA PEDIATRICS,Seneca,SC,OCONEE,Upstate,"109 Omni DR , STE B",,29678,864-888-4222,,864-888-0023,Micropolitan
CLIO MEDICAL CENTER,CLIO,SC,MARLBORO,Pee Dee ,200 N MAIN ST,,29525-0000,8435862292,,,Micropolitan
CMC CTR FAMLY MED PEACHVIEW,Gaffney,SC,CHEROKEE,Upstate,722 Hyatt St STEC,,29341,8644892400,,8644883987,Micropolitan
CMC Pediatrics,Conway,SC,HORRY,Pee Dee ,2376 Cypress CIR STE 103,,29527,(843)234-8788,,(843)234-8787,Medium metro
CMC Pediatrics - Socastee,Myrtle Beach,SC,HORRY,Pee Dee ,6010 HIGHWAY 707 STE 100,,29588,(843)293-1005,,(843)293-1006,Medium metro
CMC PRIMARY CARE MYRTLE TRACE,Conway,SC,HORRY,Pee Dee ,8004 Myrtle Trace Dr,,29526,843-234-8939,,843-234-8959,Medium metro
CMC Primary Care-Marion,Marion,SC,MARION,Pee Dee ,1211 N ST,,29571,843-765-2985,,,Non-Core
Coastal Carolina Medical Center,HARDEEVILLE,SC,JASPER,LowCountry,1010 Medical Center DR,,29927,843-784-8293,,843-784-7801,Small metro
COASTAL PEDIATRIC ASSOCATES  P.A.,Charleston,SC,CHARLESTON,LowCountry,2051 CHARLIE HALL BLVD,,29414,843-266-4769,,,Medium metro
Coastal Pediatric Associates,Charleston,SC,CHARLESTON,LowCountry,776 DANIEL ELLIS DR,BLDG 2 STE - A,29412,843-795-8100,,,Medium metro
Coastal Pediatric Associates,Summerville,SC,BERKELEY,LowCountry,2015 2nd Ave Ste101,,29406,(843)737-9465,,,Medium metro
COASTAL PEDIATRIC ASSOCIATES PA,Mount Pleasant,SC,CHARLESTON,LowCountry,1952 LONG GROVE DR,STE 202,29464,843-284-4262,,,Medium metro
Coastal Pediatrics,North Charleston,SC,CHARLESTON,LowCountry,9165 University Blvd STE 100N,,29406,(843) 284-0711,,,Medium metro
COASTAL PEDIATRICS,Conway,SC,HORRY,Pee Dee ,8030 MYRTLE TRACE DR,,29526,843-347-4677,,843-347-4678,Medium metro
COASTAL PLAINS PRIMARY CARE,Varnville,SC,HAMPTON,LowCountry,595 W CAROLINA AVE,,29944,(803)943-7612,,(803)943-7677,Non-Core
COLEMAN FAMILY PRACTICE,Pamplico,SC,FLORENCE,Pee Dee ,953 S PAMPLICO HWY,,29583,843-493-5252,,843-493-2372,Small metro
COLLETON COUNTY HEALTH DEPARTMENT,Walterboro,SC,COLLETON,LowCountry,219 S LEMACKS ST,,29488,843-549-1516,,,Non-Core
COLONIAL FAMILY PRACTICE,SUMTER,SC,SUMTER,Pee Dee ,325 BROAD ST,Ste 100,29150,803-773-5227,,803-774-5024,Small metro
COLONIAL FAMILY PRACTICE,SUMTER,SC,SUMTER,Pee Dee ,220 BROAD St,,29150,8037735227,,,Small metro
COLONIAL PEDIATRICS,Sumter,SC,SUMTER,Pee Dee ,742 W LIBERTY ST,,29150,803-773-5227,5006,803-774-1094,Small metro
CONWAY MEDICAL CENTER,Conway,SC,HORRY,Pee Dee ,300 SINGLETON RIDGE RD,,29526,843-347-8120,,(843)234-6870,Medium metro
CONWAY PEDIATRICS,Conway,SC,HORRY,Pee Dee ,907 BELL ST,,29526,843-248-2727,,843-248-5107,Medium metro
COOPER RIVER PEDIATRICS,MOUNT PLEASANT,SC,CHARLESTON,LowCountry,1156 BOWMAN RD,STE 105,29464-0000,843-971-1233,,,Medium metro
CORNERSTONE FAMILY MEDICINE,Greer,SC,GREENVILLE,Upstate,206-A S MAIN ST,,29650,864-989-0230,,,Medium metro
COULTER CLINIC,Orangeburg,SC,ORANGEBURG,LowCountry,941 SUMMERS AVE,,29115,803-534-0437,,(803)531-1464,Micropolitan
CPG Family Medicine ,Aynor,SC,HORRY,Pee Dee ,51 11TH AVE,,29511,843-358-3700,,843-358-3707,Medium metro
CPG FAMILY MEDICINE  TOWNE CENTRE,Myrtle Beach,SC,HORRY,Pee Dee ,5010 Carolina Forest BLVD,,29579,843-236-2700,,843-236-2726,Medium metro
CPG FM&UC@SOCASTEE,MYRTLE BEACH,SC,HORRY,Pee Dee ,4887 SOCASTEE BLVD,,29588,843-293-1005,,843-293-1006,Medium metro
CPG- Pediatrics  Carolina Forest,Myrtle Beach,SC,HORRY,Pee Dee ,4022 C POSTAL WAY,,29579,843-903-4111,,843-903-4242,Medium metro
CPM Complex Health,Greenville,SC,GREENVILLE,Upstate,57 CROSS PARK CT,,29605,864-220-8909,,864-220-7297,Medium metro
DARLINGTON COUNTY HEALTH DEPT D,Darlington,SC,DARLINGTON,Pee Dee ,305 RUSSELL St,,29532,843-398-4400,,843-398-4418,Small metro
DENMARK MEDICAL CENTER  LLC,Denmark,SC,BAMBERG,LowCountry,5616 Carolina HWY,,29042,803-531-6900,,,Non-Core
DILLON COUNTY HEALTH DEPARTMENT,Dillon,SC,DILLON,Pee Dee ,201 W HAMPTON ST,,29536,843-774-5611,,843-841-0835,Non-Core
DILLON FAMILY MEDICINE,Dillon,SC,DILLON,Pee Dee ,603 N 6TH AVE,,29536,843-774-7336,,843-774-7331,Non-Core
DOCTORS FAMILY MEDICINE,Greer,SC,GREENVILLE,Upstate,3115 BRUSHY CREEK RD,#D,29650,864-877-4221,,864-877-1711,Medium metro
DR  RONALD D PADGETT,Bamberg,SC,BAMBERG,LowCountry,526 NORTH ST,,29003,803-245-2433,,,Non-Core
DR MARION DWIGHT  MD  PA,Bamberg,SC,BAMBERG,LowCountry,450 NORTH ST,,29003,803-245-5168,,,Non-Core
DR. RONALD D. PADGETT,Orangeburg,SC,ORANGEBURG,LowCountry,1727 VILLAGE PK DR,,29118,803-533-0007,,(803)533-1046,Micropolitan
DR. WANDA STARLING,Landrum,SC,SPARTANBURG,Upstate,1014 S BLACKSTOCK RD,,29356,864-457-2033,,864-457-3007,Medium metro
DUE WEST FAMILY MEDICINE,Due West,SC,ABBEVILLE,Upstate,6 COLLEGE ST,,29639,864-379-2345,,,Micropolitan
Easley Family Medicine,Easley,SC,PICKENS,Upstate,106 John St,,29640,864-859-2220,,864-859-3998,Medium metro
EAST COOPER COASTAL FAMILY PHYSICIA,Mount Pleasant,SC,CHARLESTON,LowCountry,3400 Salterbeck ST,STE 100 A,29466,843-646-9474,,,Medium metro
Eastern Carolina Pediatric  Associates,Florence,SC,FLORENCE,Pee Dee ,1530 McClure CT,,29505,843-667-6710,,843-667-6791,Small metro
EASTERN CAROLINA PEDIATRIC ASSOC.,Darlington,SC,DARLINGTON,Pee Dee ,105 INDUSTRIAL WAY HWY 151,PO Box 799,29532,843-432-5474,,843-395-2573,Small metro
EASTOVER FAMILY PRACTICE,Eastover,SC,RICHLAND,Midlands ,3041 Old Eastover Rd,,29044,803-353-8741,,,Medium metro
EASTSIDE PEDIATRICS  PA,Taylors,SC,GREENVILLE,Upstate,4501 Old Spartanburg Rd Ste 9,STE 9,29687,864-292-8868,,864-268-9564,Medium metro
Eau Claire Cooperative Health Care ,Columbia,SC,RICHLAND,Midlands ,1228 Harden ST,,29204,803-774-0540,,803-774-0542,Medium metro
EDGEFIELD COUNTY HEALTH DEPARTMENT,Edgefield,SC,EDGEFIELD,Midlands ,21 STAR RD,,29824,8036374035,,803-637-4039,Medium metro
Edgefield Medical Center,Edgefield,SC,EDGEFIELD,Midlands ,155 RIDGE MEDICAL PLZ,STE B,29824,803-637-3630,,803-637-5348,Medium metro
ELLOREE FAMILY PRACTICE,Santee,SC,ORANGEBURG,LowCountry,8799 Old Number 6 HWY,,29142,803-854-6358,,(803)854-9054,Micropolitan
ELM PEDIATRICS ,Lake City,SC,FLORENCE,Pee Dee ,800 W Main St,,29560,843-977-7337,,843-972-1700,Small metro
Ember Modern Medicine ,Greenville,SC,GREENVILLE,Upstate,1068 N Church ST,Suite101,29601,864-702-2365,,864-474-4109,Medium metro
EMMANUEL FAMILY CLINIC,Newberry,SC,NEWBERRY,Midlands ,2531 EVANS ST,STE A,29108,803-276-7978,,(803)675-0750,Micropolitan
EMMANUEL FAMILY CLINIC-SALUDA,Saluda,SC,SALUDA,Midlands ,501 W BUTLER AVE,,29138,864-445-2250,,(877)870-2854,Medium metro
EPWORTH CHILDRENS HOME,Columbia,SC,RICHLAND,Midlands ,2900 MILLWOOD AVE,BLDG 12,29205,803-212-4793,,(803)212-4793,Medium metro
EVANS PEDIATRICS LLC,Simpsonville,SC,GREENVILLE,Upstate,104 W GEORGIA RD,,29681,864-963-0400,,864-963-6116,Medium metro
EXPRESS PEDIATRIC CARE,Greenville,SC,GREENVILLE,Upstate,10 Enterprise Blvd,Unit 105,29615,864-551-2422,,843-551-2424,Medium metro
FAIRFIELD COUNTY HEALTH DEPARTMENT,Winnsboro,SC,FAIRFIELD,Midlands ,1136 KINCAID BRIDGE RD,,29180,803-635-6481,,803-635-1410,Medium metro
Fairfield Medical Associates,Winnsboro,SC,FAIRFIELD,Midlands ,880 W Moultrie ST STE 200,,29180,803-635-6461,,803635-4200,Medium metro
FAMILIES FIRST FAMILY MEDICINE,MAULDIN,SC,GREENVILLE,Upstate,11 JENKINS ST,,29662,8642881941,,,Medium metro
FAMILY FIRST MEDICAL CARE,Charleston,SC,CHARLESTON,LowCountry,1483 TOBIAS GADSON BLVD,STE 206,29407,843-766-1936,,,Medium metro
Family Health Center of Holly Hill,Holly Hill,SC,ORANGEBURG,LowCountry,922 HOLLY ST,,29059,803-496-7174,,(803)496-7928,Micropolitan
FAMILY HEALTH CENTERS  INC-PED DIVI,Orangeburg,SC,ORANGEBURG,LowCountry,3310 Magnolia ST,,29115,803-531-6900,,(803)531-6907,Micropolitan
Family Healthcare ,Ninety Six,SC,GREENWOOD,Upstate,103 LITTLE MOUNTAIN RD,,29666,864-543-3515,,(864)543-2973,Micropolitan
FAMILY HEALTHCARE - WARE SHOALS,Ware Shoals,SC,GREENWOOD,Upstate,167 S GREENWOOD AVE EXT,,29692,8644563447,,864-725-4979,Micropolitan
Family Healthcare Newberry,Newberry,SC,NEWBERRY,Midlands ,2605 KINARD ST,Ste 200,29108,803-405-1900,,(803)405-1919,Micropolitan
Family Healthcare of Edgefield,Edgefield,SC,EDGEFIELD,Midlands ,"155 RIDGE MEDICAL PLZ , STE A",,29824,803-637-3146,,,Medium metro
FAMILY HEALTHCARE WEST GREENWOOD,Greenwood,SC,GREENWOOD,Upstate,1228 Highway 72 W,,29649,864-943-0549,,(864)227-2067,Micropolitan
Family Healthcare- North Saluda,Saluda,SC,SALUDA,Midlands ,595 Newberry Hwy,,29138,864-445-2500,,(864)445-2795,Medium metro
FAMILY MEDICINE ASSOCIATES,Abbeville,SC,ABBEVILLE,Upstate,901 W GREENWOOD ST,STE 1,29620,864-366-9681,,864-366-9686,Micropolitan
Family Medicine Mountain View- B,Greer,SC,GREENVILLE,Upstate,405 Memorial Drive Ext,,29651,864-879-9066,,864-241-9214,Medium metro
Family Medicine Pine Street ,Spartanburg,SC,SPARTANBURG,Upstate,333 S Pine St,,29302,864-577-9970,,864-5221918,Medium metro
FAMILY PRACTICE ASSOC OF EASLEY,Easley,SC,PICKENS,Upstate,700 BRUSHY CREEK RD,,29642,864-306-9661,,864-306-9661,Medium metro
FAMILY RESOURCE CENTER MED CLINIC,FORT MILL,SC,YORK,Midlands ,120 E Elliott ST,,29715,803-322-6636,,803-548-1350,Large fringe metro
FAMILY RESOURCE CENTER MED CLINIC,ROCK HILL,SC,YORK,Midlands ,410 E BLACK ST,,29730,(803)909-6363,,(803)909-6364,Large fringe metro
FETTER FAMILY HLTH CTR - HOLLYWOOD,Hollywood,SC,CHARLESTON,LowCountry,5225 HIGHWAY 165,,29449,843-889-2272,,,Medium metro
Fetter Health Care Cross,Cross,SC,BERKELEY,LowCountry,1681 Old Highway 6,,29436,843-753-2334,,,Medium metro
Fetter Health Care Network Walterboro,Walterboro,SC,COLLETON,LowCountry,"302 Medical Park DR , STE 111",,29488,843-549-6853,,(845)549-7961,Non-Core
FIVE PTS PEDS AND WALK IN,Columbia,SC,RICHLAND,Midlands ,1228 HARDEN ST,Ste 1,29204,803-748-7002,,,Medium metro
FLORENCE COUNTY HEALTH DEPARTMENT,Florence,SC,FLORENCE,Pee Dee ,145 E CHEVES St,,29506,843-661-4835,,843-661-4844,Small metro
FLOWERTOWN UNIVERSITY FAMILY MED,SUMMERVILLE,SC,DORCHESTER,LowCountry,602 N MAIN ST,,29483-0000,843-876-2121,,,Medium metro
FOOTHILLS COMMUN HLTHCRE - ANDERSON,Anderson,SC,ANDERSON,Upstate,1100 W Franklin St,,29624,864-224-0822,,864-261-8130,Medium metro
Foothills community Health Care,Easley,SC,PICKENS,Upstate,403 Hillcrest Dr Ste E,,29640,864-343-1220,,864-307-8870,Medium metro
FOOTHILLS COMMUNITY HEALTH CARE,Clemson,SC,PICKENS,Upstate,110 Liberty DR,,29631,864-722-0283,,8643156762,Medium metro
FOOTHILLS FAMILY MEDICINE,SPARTANBURG,SC,SPARTANBURG,Upstate,2995 Reidville Rd,,29301-0000,8642538140,,8645870051,Medium metro
FOOTHILLS FAMILY MEDICINE,PACOLET,SC,SPARTANBURG,Upstate,391 GLENN SPRINGS RD.,,29372-0000,864-474-3013,,864-474-1501,Medium metro
FOWLER RURAL MEDICAL,MARION,SC,MARION,Pee Dee ,2236 HWY 76 E,Ste B,29571-0000,8434234044,,,Non-Core
Francis Marion University Student Health Services,Florence,SC,FLORENCE,Pee Dee ,121 S Evander DR,PO Box 100547,29506,843-661-1843,,843-661-1818,Small metro
FRANKLIN C FETTER JOHNS ISLAND,Johns Island,SC,CHARLESTON,LowCountry,3627 MAYBANK HWY,,29455,843-559-3676,,,Medium metro
FRANKLIN C FETTER SUMMERVILLE,Summerville,SC,BERKELEY,LowCountry,130 Varnfield DR #100,,29483,843-821-3444,,(843)851-8001,Medium metro
FRANKLIN C. FETTER ENTERPRISE PEDS,Charleston,SC,CHARLESTON,LowCountry,2047 COMSTOCK AVE,,29405,843-747-8893,,843-747-8895,Medium metro
FRANKLIN C. FETTER FAMILY COMMUNITY,Charleston,SC,CHARLESTON,LowCountry,51 NASSAU ST,,29403,843-722-4112,,843-577-9550,Medium metro
GENESIS HEALTH CARE  INC,Olanta,SC,FLORENCE,Pee Dee ,211 S JONES RD,,29114,843-396-9730,,843-396-9735,Small metro
Genesis Healthcare dba Walterboro Family Care,Walterboro,SC,COLLETON,LowCountry,457 Spruce ST,,29488,(843)781-7428,,(843)781-7429,Non-Core
GEORGETOWN COUNTY HEALTH DEPT,Georgetown,SC,GEORGETOWN,Pee Dee ,531 LAFAYETTE CIR,,29440,843-546-5593,,843-546-0456,Micropolitan
GEORGETOWN INTERNIST  PEDIATRICIAN,Pawleys Island,SC,GEORGETOWN,Pee Dee ,64 BUSINESS CTR DR,,29585,843-314-1314,,843-314-1308,Micropolitan
GEORGETOWN MEMORIAL HOSPITAL,Georgetown,SC,GEORGETOWN,Pee Dee ,606 Black River Rd.,,29440,843-520-7498,,843-520-7810,Micropolitan
GHS Family Medicine Walhalla,Walhalla,SC,OCONEE,Upstate,103 Whitetail DR,,29691,(864)638-3444,,,Micropolitan
GHS Medical Center Boiling Spring,Boiling Springs,SC,SPARTANBURG,Upstate,2400 Boiling Springs RD,,29613,864.599.0731,,,Medium metro
GHS Patewood Memorial Hospital,Greenville,SC,GREENVILLE,Upstate,175 PATEWOOD DR,,29615,864-797-0080,,864-797-0085,Medium metro
GHS Spartanburg Pediatric Health Center,Spartanburg,SC,SPARTANBURG,Upstate,201 E Broad ST,Ste 210,29306,864-707-2135,,864-707-2136,Medium metro
GOLDEN CORNER FAMILY PRACTICE,West Union,SC,OCONEE,Upstate,1205 N Highway 11,,29696,864-638-5402,,,Micropolitan
GOOSE CREEK HEALTH DEPARTMENT,Goose Creek,SC,BERKELEY,LowCountry,106 WESTVIEW BLVD,,29445,843-572-3313,,,Medium metro
GRAND STRAND PED  ADOL MEDICINE,Little River,SC,HORRY,Pee Dee ,4326 BALDWIN AVE,,29566,843-249-7400,,843-249-7440,Medium metro
GRAND STRAND PED  ADOL MEDICINE,Surfside Beach,SC,HORRY,Pee Dee ,1120 GLENNS BAY RD,STE 120,29575,843-650-7000,,(843)650-0773,Medium metro
Grand Strand Pediatric Adolescent Medicine,Myrtle Beach,SC,HORRY,Pee Dee ,5015 Carolina Forest Blvd,,29579,(843)945-1740,,(843)236-4101,Medium metro
GRAND STRAND PEDIATRICS  ADOLESCEN,Myrtle Beach,SC,HORRY,Pee Dee ,8120 ROURK ST,,29572,843-449-1438,,(843)286-1349,Medium metro
GRAND STRAND PRIMARY CARE,Myrtle Beach,SC,HORRY,Pee Dee ,920 Doug White Dr Ste 250,UNIT 250,29572,843-848-4640,,843-839-2382,Medium metro
GREATER GREENVILLE FAMILY HEALTH,Greenville,SC,GREENVILLE,Upstate,2086 B WOODRUFF RD,,29607,864-329-9526,,864-329-9527,Medium metro
GREENVILLE COUNTY HEALTH DEPARTMENT,Greenville,SC,GREENVILLE,Upstate,352 Halton Rd,,29607,864-372-3270,,864-282-4425,Medium metro
GREENVILLE MEDICAL ASSOCIATES  PA,Greenville,SC,GREENVILLE,Upstate,545 W BUTLER RD,,29607,864-299-1990,,864-299-9123,Medium metro
Greenville Medical Associates PA,Greenville,SC,GREENVILLE,Upstate,2601 N Pleasantburg DR,,29609,864-299-1990,,864-299-9123,Medium metro
Greenville Pediatric Health Center,Greenville,SC,GREENVILLE,Upstate,1350 Cleveland ST,,29605,864-454-8267,,8646279131,Medium metro
Greenville-Pediatrics PA,Greenville,SC,GREENVILLE,Upstate,37 Brendan Way,,29615,864-458-7792,,864-458-7943,Medium metro
GREENWOOD COUNTY HEALTH DEPARTMENT,Greenwood,SC,GREENWOOD,Upstate,1736 S MAIN ST,,29646,864-942-3600,,864-942-3690,Micropolitan
GREER MEMORIAL HOSPITAL,Greer,SC,GREENVILLE,Upstate,830 S BUNCOMBE RD,,29650,864-797-8001,,864-797-8006,Medium metro
GRIFFIN FAMILY PRACTICE,LAMAR,SC,DARLINGTON,Pee Dee ,105 N RAILROAD AVE,,29069-0000,8433265777,,,Small metro
HAMPTON COUNTY HEALTH DEPARTMENT,Varnville,SC,HAMPTON,LowCountry,531 CAROLINA AVE W,,29944,803-943-3878,,803-943-0737,Non-Core
HARDEEVILLE MEDICAL CTR - BJH,HARDEEVILLE,SC,JASPER,LowCountry,552 STINEY POINT RD,,29927,843-784-2181,,,Small metro
HARRISON PEEPLES HEALTH CARE CENTER,Varnville,SC,HAMPTON,LowCountry,1000 Pine ST,,29944,803-943-5228,,(803)943-4591,Non-Core
HARTH PLACE FAMILY MEDICINE,SUMMERVILLE,SC,DORCHESTER,LowCountry,102 HARTH PL,,29485,8438326425,,,Medium metro
HARTSVILLE  HEALTH  CENTER,Hartsville,SC,DARLINGTON,Pee Dee ,130 E CAMDEN Ave,,29550,843-332-7303,,843-383-6082,Small metro
Hartsville Medical Associates,Hartsville,SC,DARLINGTON,Pee Dee ,206 Swift Creek Rd,,29550,843-917-4117,,843-917-4590,Small metro
"Health Care Partners of SC, Inc. Marion ",Marion,SC,MARION,Pee Dee ,145 Palmetto Pointe RD,,29571,(843)423-2400,5520,(843)423-3432,Non-Core
Health Care Partners of South Carol,Conway,SC,HORRY,Pee Dee ,1708 OAK ST,,29526,843-488-6351,,(843)438-8752,Medium metro
HEALTH CARE PRTNRS SC -JOHNSONVILLE,Johnsonville,SC,FLORENCE,Pee Dee ,123 E Broadway St,,29555,8773220181,,,No Urbanicity Data
Healthcare Partners of SC- Singleton Ridge,Conway,SC,HORRY,Pee Dee ,243 Singleton Ridge Rd,,29526,843-248-4700,5345,877-322-0181,No Urbanicity Data
HERITAGE PEDS  INTERNAL MEDICINE,Simpsonville,SC,GREENVILLE,Upstate,727 SE MAIN ST,Ste 320,29681,864-454-6440,,864-454-6445,Medium metro
HILLCREST FAMILY PRACTICE,Simpsonville,SC,GREENVILLE,Upstate,717 S E MAIN ST,,29681,864-522-5400,,864-522-5405,Medium metro
HOLLY HILL HEALTH CENTER,Holly Hill,SC,ORANGEBURG,LowCountry,8423 A Old State RD,,29059,803-496-3324,,(803)496-9653,Micropolitan
HOMETOWN PEDIATRICS,Clinton,SC,LAURENS,Upstate,500 PLAZA CIR,Ste J,29325,864-547-8300,,,Medium metro
HOPE HEALTH INC,Lake City,SC,FLORENCE,Pee Dee ,241 KELLEY ST,,29560,843-394-1051,,843-394-0277,Small metro
Hope Health Timmonsville ,Timmonsville,SC,FLORENCE,Pee Dee ,210 E MARKET ST,,29161,843-346-3730,,843-346-7689,Small metro
HOPE HEALTH-FLORENCE-IRBY,Florence,SC,FLORENCE,Pee Dee ,360 N IRBY STREET,,29501,843-432-3672,,843-656-8862,Small metro
HOPEHEALTH - PINE NEEDLES,Florence,SC,FLORENCE,Pee Dee ,3380 Pine Needles Rd,,29501,8434322952,,,No Urbanicity Data
HOPEHEALTH -KINGSTREE,Kingstree,SC,WILLIAMSBURG,Pee Dee ,520 Thurgood Marshall Hwy,STE B,29556,843-355-5628,,(843)355-5616,Non-Core
HopeHealth Greeleyville,Greeleyville,SC,WILLIAMSBURG,Pee Dee ,86 N Main ST,,29056,8434262335,,8434262346,Non-Core
HOPEHEALTH INC,Lake City,SC,FLORENCE,Pee Dee ,652 N MATTHEWS RD,,29560,(843)432-3677,,(843)374-2713,Small metro
HOPEHEALTH INC.,FLORENCE,SC,FLORENCE,Pee Dee ,600 E PALMETTO ST,,29506,8436679414,,,Small metro
HOPEHEALTH Pediatrics Florence,Florence,SC,FLORENCE,Pee Dee ,1920 Second Loop Road,,29501,843-432-3700,,843-407-9723,Small metro
HopeHealth-Hemingway,Hemingway,SC,WILLIAMSBURG,Pee Dee ,2266 Hemingway Hwy,,29554,8438965896,,8439334034,Non-Core
HopeHealth-Manning Pediatrics,Manning,SC,CLARENDON,Pee Dee ,11 W Hospital St,,29102,803-433-4124,,803-433-1207,Non-Core
HOPKINS PEDIATRICS  FAMILY PRACTICE,Hopkins,SC,RICHLAND,Midlands ,9023 GARNERS FERRY RD,,29061,803-978-1848,,803-978-1852,Medium metro
HORRY COUNTY HEALTH DEPARTMENT C,Conway,SC,HORRY,Pee Dee ,1931 INDUSTRIAL PARK RD,,29526,843-915-8800,,(843)365-0110,Medium metro
ICNA Relief USA Shifa Clinic,Charleston,SC,BERKELEY,LowCountry,668 Marina Drive,Suite A5,29492,(843)352-4580,,,Medium metro
INCLUSIVE HEALTHCARE CENTER,Myrtle Beach,SC,HORRY,Pee Dee ,4882 SOCASTEE BLVD,,29588,843-668-2744,,843-668-2743,Medium metro
INDIAN LAND PEDIATRICS  LLC,Indian Land,SC,LANCASTER,Midlands ,7580 CHARLOTTE HWY,Ste 1000,29707,803-396-1090,,803-396-1091,Large fringe metro
INLET PEDIATRICS  PA,Murrells Inlet,SC,GEORGETOWN,Pee Dee ,PO Box 4920,,29576,843-652-3300,,843-652-3200,Micropolitan
JAMES ISLAND PEDIATRICS,Charleston,SC,CHARLESTON,LowCountry,776 DANIEL ELLIS DR,STE 3C,29412,843-795-0900,,,Medium metro
Jamison Pediatrics and Express Care,Ridgeland,SC,JASPER,LowCountry,11382 N Jacob Smart Blvd,,29936,(843)645-9797,,(843)645-9796,Small metro
JAMISON PEDIATRICS-HOLLY HILL,Holly Hill,SC,ORANGEBURG,LowCountry,932 HOLLY St,UNIT 803,29059,803-496-9000,1,,Micropolitan
JAMISON PEDIATRICS-VILLAGE PARK ,Orangeburg,SC,ORANGEBURG,LowCountry,1729 VILLAGE PARK DR,,29118,803-997-2501,,803-997-2509,Micropolitan
Jantana Vuthiganon MD,Ridgeland,SC,JASPER,LowCountry,1506 Grays HWY,Ste C ,29936,843-726-4527,,(843)726-8891,Small metro
Jasper County Health Dept,Ridgeland,SC,JASPER,LowCountry,651 Grays HWY,,29936,843-726-7788,,(843)726-5320,Small metro
JOSEPH D. EWENS MD FAMILY MEDICINE,SUMMERVILLE,SC,DORCHESTER,LowCountry,90 SPRINGVIEW LN,,29485,843-832-9113,,,Medium metro
KERSHAW COUNTY HEALTH DEPARTMENT,Camden,SC,KERSHAW,Midlands ,1116 CHURCH ST,,29020,803-425-6012,,,Medium metro
KERSHAW HLTH PRIMARY CARE AT ELGIN,Elgin,SC,KERSHAW,Midlands ,40 PINNACLE PKWY,BLDG 100  Ste 208,29045,803-424-5165,,803-408-0356,Medium metro
"Kids Choice Pediatrics, PA",Greenville,SC,GREENVILLE,Upstate,58 Bear DR,,29605,(864)243-8916,,(864)243-8938,Medium metro
KIDSCARE PEDIATRICS,Seneca,SC,OCONEE,Upstate,109 OMNI DR STE A,,29672,864-885-9448,,864-8851980,Micropolitan
LAKE CITY FAMILY MEDICINE,Lake City,SC,FLORENCE,Pee Dee ,901 N MATTHEWS RD,,29560,843-374-8380,,843-374-5247,Small metro
LAKE CITY HEALTH DEPT,Lake City,SC,FLORENCE,Pee Dee ,137 N ACLINE ST,,29560,843-394-8822,,843-394-8856,Small metro
Lake Monticello Family Practice,Jenkinsville,SC,FAIRFIELD,Midlands ,9017 Hwy 215 S,,29065,803-298-2068,,803-298-2069,Medium metro
LAKELANDS FAMILY PRACTICE,Waterloo,SC,LAURENS,Upstate,17124 Highway 72 W,,29384,864-393-1020,,864-393-1025,Medium metro
LAKESIDE PEDIATRICS,Lexington,SC,LEXINGTON,Midlands ,109 VISTA OAKS DR,STE C,29072,803-808-0523,,803-358-0615,Medium metro
"Lamar Family Care - Genesis Health Care, Inc.",Lamar,SC,DARLINGTON,Pee Dee ,301 West  Main Street,,29069,(843)395-8400,,(843)395-8401,Small metro
LANCASTER COUNTY HEALTH DEPT.,Lancaster,SC,LANCASTER,Midlands ,1833 PAGELAND HWY,,29720,803-286-9948,,803-286-5418,Large fringe metro
LANCASTER PEDIATRICS,Lancaster,SC,LANCASTER,Midlands ,838 W MEETING ST,Ste B,29720,803-285-2700,,803-285-2707,Large fringe metro
LAURENS COUNTY HEALTH DEPARTMENT,Clinton,SC,LAURENS,Upstate,93 HUMAN SERVICES RD,,29325,864-833-0000,,864-833-6400,Medium metro
Laurens County Memorial Hospital,Clinton,SC,LAURENS,Upstate,22725 HWY 76 E,,29325,864-833-9185,,864-833-9490,Medium metro
LAURENS FAMILY PRACTICE,Laurens,SC,LAURENS,Upstate,106 PARKVIEW DR,,29360,864-984-0571,,864-984-3610,Medium metro
LAURENS FAMILY PRACTICE-GRAY COURT,Gray Court,SC,LAURENS,Upstate,9100 HWY 14 BESIDE EMS BLDG,,29645,864-876-4888,,864-876-4900,Medium metro
LAURENS PEDIATRIC CLINIC,LAURENS,SC,LAURENS,Upstate,915 W MAIN ST,,29360-0000,8649844263,,,Medium metro
LEE COUNTY HEALTH DEPARTMENT,Bishopville,SC,LEE,Pee Dee ,810 BROWN ST,,29010,803-484-6612,,803-484-6314,Non-Core
LEXINGTON COUNTY HEALTH DEPT,Lexington,SC,LEXINGTON,Midlands ,1070 S LAKE DR,Ste B,29073,803-785-6550,,,Medium metro
LEXINGTON PEDIATRIC PRACTICE,Lexington,SC,LEXINGTON,Midlands ,811 W Main St Ste 204,Ste 204,29072,8033598855,,,Medium metro
Lexington Pediatric Practice- West Columbia,West Columbia,SC,LEXINGTON,Midlands ,3240 Sunset Blvd,,29169,803-359-8855,,(803)794-6480,Medium metro
Liberty Doctors LLC Dba Sherry J Viduya MD,North Charleston,SC,CHARLESTON,LowCountry,9275-D Medical Plaza DR,,29406,843-779-6444,,(843)779-6438,Medium metro
LIBERTY FAMILY CARE,Liberty,SC,PICKENS,Upstate,300 W FRONT ST,,29657,864-843-5605,,864-843-0996,Medium metro
LIFE CENTER FAMILY MEDICINE,Summerville,SC,DORCHESTER,LowCountry,679 ORANGEBURG RD,Ste F,29483,843-261-2600,,,Medium metro
Little Mountain Pediatric and Family Practice,Little Mountain,SC,NEWBERRY,Midlands ,99 N MILL ST,,29075,803-945-1005,,,Micropolitan
LITTLE RIVER MED CTR SOUTH STRAND,Myrtle Beach,SC,HORRY,Pee Dee ,3236 HOLMESTOWN RD,,29588,(843)-663-8232,,843-663-8122,Medium metro
LITTLE RIVER MEDICAL,Loris,SC,HORRY,Pee Dee ,3817 MAIN ST,,29569,843-663-6222,,(843)663-8139,Medium metro
LITTLE RIVER MEDICAL CENTER  INC,Myrtle Beach,SC,HORRY,Pee Dee ,4220 Carolina Exchange DR,,29579,843-663-8055,,843-663-8136,Medium metro
LITTLE RIVER MEDICAL CENTER INC,Little River,SC,HORRY,Pee Dee ,4303 LIVE OAK DR,,29566,843-663-8000,,(843)663-8106,Medium metro
LMC LFP WHITE KNOLL,Lexington,SC,LEXINGTON,Midlands ,105 Brevard Pkwy,,29073,803-951-1880,,803-951-0384,Medium metro
LORIS FAMILY HEALTH CENTER,Loris,SC,HORRY,Pee Dee ,3109 CASEY ST STE A,,29569,(843)756-9292,,(843)756-9260,Medium metro
Lovelace Family Medicine  PA,Prosperity,SC,NEWBERRY,Midlands ,600 N Wheeler Ave,,29127,803-364-4852,,(803)364-2014,Micropolitan
Low Country Health Care System  Inc,Fairfax,SC,ALLENDALE,LowCountry,333 Revolutionary TRL,,29827,803-632-2533,,,Non-Core
LOWCOUNTRY PEDIATRICS,Goose Creek,SC,BERKELEY,LowCountry,99 Bridgetown RD,,29445,843-572-3300,,,Medium metro
MACKEY FAMILY PRACTICE,Indian Land,SC,LANCASTER,Midlands ,8351 CHARLOTTE HWY,Ste 200,29707,803-396-5333,,803-283-4329,Large fringe metro
MACKEY FAMILY PRACTICE,Lancaster,SC,LANCASTER,Midlands ,1025 W MEETING ST,Ste 200,29720,803-286-7414,,803-283-4329,Large fringe metro
MAGNOLIA PEDIATRICS,Conway,SC,HORRY,Pee Dee ,600 SINGLETON RIDGE RD,,29526,843-347-9099,,888-972-4460,Medium metro
MANTE PEDIATRICS,Chester,SC,CHESTER,Midlands ,509 BELTLINE RD,,29706,803-385-2075,,,Large fringe metro
MANTE PEDIATRICS LLC,Lancaster,SC,LANCASTER,Midlands ,901 W Meeting St,Suite 203,29720,803-313-3846,,803-313-3847,Large fringe metro
"Mante Pediatrics of Rock Hill, Inc.",Rock Hill,SC,YORK,Midlands ,1626 Cranium DR,Ste 103,29732,803-980-5700,,803-980-5702,Large fringe metro
Margaret J. Weston Community Health,Clearwater,SC,AIKEN,Midlands ,4645 Augusta RD,,29822,803-593-9283,,(803)593-0607,Medium metro
Margaret L Wyatt MD PA,Greenville,SC,GREENVILLE,Upstate,4A Cleveland CT,,29607,8642333935,,,Medium metro
MARION COUNTY HEALTH DEPARTMENT,Mullins,SC,MARION,Pee Dee ,206 AIRPORT CT,STE B,29574,843-423-8295,,843-423-7179,Non-Core
MARION COUNTY MEDICAL CENTER,Mullins,SC,MARION,Pee Dee ,2829 E Hwy 76,,29574,843-431-2029,,843-431-2368,Non-Core
MARLBORO COUNTY HEALTH DEPARTMENT,Bennettsville,SC,MARLBORO,Pee Dee ,711 S. PARSONAGE ST ,,29512,843-479-6801,,843-479-9658,Micropolitan
MARLBORO PARK HOSPITAL- WOMEN'S CTR,BENNETTSVILLE,SC,MARLBORO,,1138 CHERAW HWY,,29512-0000,8434548730,,,Micropolitan
MARTIN PRIMARY HEALTH CARE CENTER,Winnsboro,SC,FAIRFIELD,Midlands ,56 US HWY 321 BYP N,,29180,803-635-6099,,803-635-6343,Medium metro
Mary Black Health System Gaffney,Gaffney,SC,CHEROKEE,Upstate,1530 N LIMESTONE ST,,29340,864-487-1657,,864-487-1650,Micropolitan
MARY BLACK MEMORIAL HOSPITAL,Spartanburg,SC,SPARTANBURG,Upstate,1700 Skylyn DR,,29307,864-573-3891,,864-573-3399,Medium metro
Mary Black Phys.Grp.Fm. Internal Med.West,Spartanburg,SC,SPARTANBURG,Upstate,2995 REIDVILLE RD,STE 260,29301,864-574-2866,,864-574-2646,Medium metro
"Mary Black Physicians Group, LLC",Spartanburg,SC,SPARTANBURG,Upstate,1690 Skylyn DR,Ste 300,29307,864-342-4000,,864-596-7409,Medium metro
MCCORMICK CO HLTH DEPT,McCormick,SC,MCCORMICK,Upstate,204 HWY 28 S,,29835,864-852-2511,,,Non-Core
MCCORMICK FAMILY PRACTICE,McCormick,SC,MCCORMICK,Upstate,1319 S Main ST STE A,,29835,864-852-3336,,,Non-Core
MCG Family Practice,UNION,SC,UNION,Upstate,429 E MAIN ST,,29379,864-427-9045,,,Medium metro
MCLEOD FAMILY MED. MARION CO,MULLINS,SC,MARION,Pee Dee ,3032 E HWY 76,,29574-0000,843-464-7111,,843-292-7324,Non-Core
MCLEOD FAMILY MEDICINE CENTER,Florence,SC,FLORENCE,Pee Dee ,144 N Ravenel ST,,29506,843-777-2800,,843-777-5312,Small metro
McLeod Family Medicine- Kingstree,Kingstree,SC,WILLIAMSBURG,Pee Dee ,512 NELSON BLVD,STE 200,29556,8433555459,,843-355-9704,Non-Core
MCLEOD FAMILY MEDICINE-DARLINGTON,Darlington,SC,DARLINGTON,Pee Dee ,701 CASHUA FERRY RD,,29532,843-777-7240,,843-777-7080,Small metro
MCLEOD FAMILY MEDICINE-JOHNSONVILLE,JOHNSONVILLE,SC,FLORENCE,Pee Dee ,355 S GEORGETOWN HWY,,29555,843-380-2000,,843-380-2014,Small metro
MCLEOD FAMILY PRACTICE-TIMMONSVILLE,Timmonsville,SC,FLORENCE,Pee Dee ,755 E SMITH ST,,29161,843-346-3900,,843-346-7839,Small metro
MCLEOD HEALTH,Florence,SC,FLORENCE,Pee Dee ,555 E CHEVES ST,,29506,843-777-4778,,843-777-5491,Small metro
MCLEOD MEDICAL CTR  DILLON,Dillon,SC,DILLON,Pee Dee ,301 E JACKSON ST,,29536,843-487-1660,,843-487-1393,Non-Core
MCLEOD PEDIATRIC SUBSPECIALIST,FLORENCE,SC,FLORENCE,Pee Dee ,901 E CHEVES ST,Ste 420,29506,8437777313,,,Small metro
MCLEOD PEDIATRICS - DILLON,Dillon,SC,DILLON,Pee Dee ,705 N 8TH AVE,Ste 3A,29536,843-774-6091,,843-841-3814,Non-Core
McLeod Pediatrics Bennettsville,Bennettsville,SC,MARLBORO,Pee Dee ,1076 MARLBORO WAY,STE 3,29512,843-479-0432,,843-479-3036,Micropolitan
McLeod Pediatrics Clarendon,Manning,SC,CLARENDON,Pee Dee ,50 E Hospital ST STE 4B,,29102,803-433-8420,,803-433-8417,Non-Core
McLeod Pediatrics- Cheraw,Cheraw,SC,CHESTERFIELD,Pee Dee ,723 S DOCTORS DR,,29520,843-537-9360,,843-537-9710,Non-Core
McLeod Physician Associates,LITTLE RIVER,SC,HORRY,Pee Dee ,3980 HWY 9 E,Ste 100-A,29566,843-390-8320,,843-3908329,Medium metro
Mcleod Primary Care Associates,Florence,SC,FLORENCE,Pee Dee ,"800 E Cheves ST , STE 200",,29506,843-662-1502,,843- 777-7383,Small metro
McLeod Primary Care Clarendon ,Manning,SC,CLARENDON,Pee Dee ,50 E Hospital Street,,29102,803-435-8828,,803-435-2239,Non-Core
MEDICAL BLDG PA HEMINGWAY,Hemingway,SC,WILLIAMSBURG,Pee Dee ,456 N MAIN ST,,29554,843-558-9319,,843-558-9818,Non-Core
MEDICAL CTR OF SANTEE,Santee,SC,ORANGEBURG,LowCountry,500 BASS DR,,29142,803-854-3805,,(803)854-3810,Micropolitan
Medical Group of the Carolinas Family Medicine Union Westside ,Union,SC,UNION,Upstate,322 W South ST,,29379,8644298029,,864-429-3515,Medium metro
MEDICAL PLAZA FAMILY MEDICINE,Florence,SC,FLORENCE,Pee Dee ,800 E CHEVES ST,STE 310,29506,843-292-0775,,843-317-4954,Small metro
MEDICAL UNIVERISTY OF SOUTH CAROLIN,Charleston,SC,CHARLESTON,LowCountry,169 ASHLEY AVE,RM CH620,29425,843-792-1363,,,Medium metro
Medical University Hospital Authority,Charleston,SC,CHARLESTON,LowCountry,"67 President St, RM 448N",,29425,843-792-5952,,8437925954,Medium metro
MGC Family Medicine and Pediatrics North,Inman,SC,SPARTANBURG,Upstate,575 Ingles DR,,29349,(864)342-4090,,,Medium metro
MGC FAMILY PHYS. OF BOILING SPRINGS,Boiling Springs,SC,SPARTANBURG,Upstate,3981 Highway 9,,29316,864-560-3650,,864-360-3675,Medium metro
MGC Pediatrics- North Grove,Spartanburg,SC,SPARTANBURG,Upstate,1330 BOILING SPRINGS RD,STE 1300,29303,(864)560-6345,,(864)278-1260,Medium metro
MGC Pediatrics- Union,Union,SC,UNION,Upstate,407 W South ST,,29379,864-429-8846,,864-429-9093,Medium metro
MIDLANDS PEDIATRICS  P.A.,COLUMBIA,SC,RICHLAND,Midlands ,2712 MIDDLEBURG DR,STE 101,29204-2415,8032544258,,,Medium metro
MILESTONES PEDIATRICS,Columbia,SC,RICHLAND,Midlands ,120 WILDEWOOD PARK DR,STE B,29223,803-788-7882,,(803)788-1828,Medium metro
MJ FLOOD MD LLC,Union,SC,UNION,Upstate,801  West Main Street ,,29379,8644410009,,8644322246,Medium metro
MONCKS CORNER HEALTH DEPT,Moncks Corner,SC,BERKELEY,LowCountry,109 W MAIN ST,,29461,843-719-4600,,,Medium metro
MONCKS CORNER PEDIATRICS LLC,Moncks Corner,SC,BERKELEY,LowCountry,5000-B EPSON PLANTATION DR,,29461,843-761-2000,,,Medium metro
Moncks Corner Primary Care,Moncks Corner,SC,BERKELEY,LowCountry,"730 Stoney Landing RD , STE 100",,29461,843-761-6556,,,Medium metro
MONTGOMERY CENTER OF FAMILY MEDICINE,Greenwood,SC,GREENWOOD,Upstate,155 ACADEMY AVE,,29646,864-725-4865,,(864)725-4725,Micropolitan
MORPHIS PEDIATRIC GROUP-LANCASTER,Lancaster,SC,LANCASTER,Midlands ,112-C WOODLAND DR,,29720,803-416-5295,,803-416-5240,Large fringe metro
MORPHIS PEDIATRICS,Hartsville,SC,DARLINGTON,Pee Dee ,708 MEDICAL PARK DR,,29550,843-332-5121,,843-332-0993,Small metro
MOUNT PLEASANT HOSPITAL,Mount Pleasant,SC,CHARLESTON,LowCountry,3500 HIGHWAY 17 N,,29466,843-606-7593,,,Medium metro
"Mount Pleasant Pediatrics, P.A.",Mount Pleasant,SC,CHARLESTON,LowCountry,1041 J. Dodds BLVD unit 5-a,,29464,843-881-0007,,,Medium metro
MT. PLEASANT HEALTH DEPARTMENT,Mount Pleasant,SC,CHARLESTON,LowCountry,1189 Sweetgrass Basket Pkwy 100,,29466,843-856-1210,,,Medium metro
MUSC AFTER HOURS CARE,North Charleston,SC,CHARLESTON,LowCountry,2250 MALL DR,,29406,843-985-0202,,843-985-0203,Medium metro
MUSC After Hours Care Mt. Pleasant,Mount Pleasant,SC,CHARLESTON,LowCountry,2705 Highway 17 N,Ste 100,29406,843-876-2227,,,Medium metro
MUSC After Hours Care Summerville,Summerville,SC,DORCHESTER,LowCountry,4330 Ladson RD,,29485,843-876-8950,,843-876-8951,Medium metro
MUSC Childrens Health Pediatrics Chester,Chester,SC,CHESTER,Midlands ,1 MEDICAL PK DR-BLDG 3,STE A,29706,803-581-2400,,803-581-2401,Large fringe metro
MUSC Childrens Health University Pediatrics-Henry Lemon,North Charleston,SC,CHARLESTON,LowCountry,2070 NORTHBROOK BLVD A-16,,29406,843-876-2511,,843-876-2526,Medium metro
MUSC Childrens Health- Peds-Marion Medical Park,Mullins,SC,MARION,Pee Dee ,2845 E Highway 76,Ste 4,29574,843-431-2720,,843-431-2984,Non-Core
MUSC FAMILY MEDICINE,Charleston,SC,CHARLESTON,LowCountry,650 ELLIS OAK DR,,29412,843-876-2961,,,Medium metro
MUSC Family Medicine Ben Sawyer,Mount Pleasant,SC,CHARLESTON,LowCountry,1440 Ben Sawyer Blvd Ste 1109,,29464,843-876-7100,,,Medium metro
MUSC Family Medicine Center -Rutledge Tower,Charleston,SC,CHARLESTON,LowCountry,30 Bee St STE 210,,29425,843-876-0088,,843-876-2818,Medium metro
MUSC Health Dantzler Clinic,Charleston,SC,CHARLESTON,LowCountry,2750 Dantzler DR,,29406,(843)876-0094,,(843)985-9561,Medium metro
MUSC Health Lancaster Medical Center,Lancaster,SC,LANCASTER,Midlands ,800 W MEETING ST,,29720,803-286-1477,,803-286-1373,Large fringe metro
MUSC Health PEE DEE PEDIATRICS Marion,Mullins,SC,MARION,Pee Dee ,2845 E HWY 76,Ste 5,29574,843-431-2650,,843-431-2982,Non-Core
MUSC Health Primary Care - Mercy Street,Lake City,SC,FLORENCE,Pee Dee ,334 MERCY ST,,29560,843-374-9355,,843-374-7953,Small metro
MUSC Health Primary Care - Sauls Street,Lake City,SC,FLORENCE,Pee Dee ,148 Sauls St ,,29560,843-374-3621,,843-374-3624,Small metro
MUSC Health Primary Care Elgin,Elgin,SC,KERSHAW,Midlands ,2689 HWY 1 S,,29045,803-438-7698,,803-438-7563,Medium metro
MUSC Health Primary Care Great Falls,Great Falls,SC,CHESTER,Midlands ,308 CHESTER AVE,,29055,8034822129,,,Large fringe metro
MUSC Health West,Charleston,SC,CHARLESTON,LowCountry,2060 Sam Rittenberg BLVD,,29407,843-876-1196,,843-985-0451,Medium metro
MUSC Lowrys Primary Care,Chester,SC,CHESTER,Midlands ,517 Doctors CT,,29706,803-581-2800,,803-581-7259,Large fringe metro
MUSC Primary Care Lugoff,Lugoff,SC,KERSHAW,Midlands ,710 DEWITT DR,,29078,803-438-1806,,803-438-4371,Medium metro
MUSC-CHILDRENS CARE-MONCKS CORNER,Moncks Corner,SC,BERKELEY,LowCountry,109 W MAIN ST,,29461,843-719-4774,,,Medium metro
MUSC-PEDIATRIC PRIMARY CARE,Charleston,SC,CHARLESTON,LowCountry,135 RUTLEDGE AVE 3RD FL RUTLEDGE TOWER,,29425,843-876-0511,,,Medium metro
MYRTLE BEACH HEALTH DEPT.,Myrtle Beach,SC,HORRY,Pee Dee ,700 21ST AVE N,,29577,8434488407,,843-448-7499,Medium metro
N CENTRAL FAM MED-PEDIATRIC CTR,Rock Hill,SC,YORK,Midlands ,1140 Saluda ST,,29732,803-325-8742,,(803)327-7464,Large fringe metro
Neighbors Pediatrics ,Charleston,SC,BERKELEY,LowCountry,1818 Remount RD,,29406,(843)766-6308,,(866)533-4473,Medium metro
NEW HOPE CAROLINAS,Rock Hill,SC,YORK,Midlands ,101 SEDGEWOOD DR,,29732,803-328-9300,,803-327-2179,Large fringe metro
NEW HORIZON FAM HLTH SVCS INC-GREER,Greer,SC,GREENVILLE,Upstate,111- A BERRY AVE,,29651,864-801-2035,,864-416-0274,Medium metro
"New Horizon Family Health Services, Inc.- Faris Road",Greenville,SC,GREENVILLE,Upstate,975 W Faris RD,,29605,864-729-8330,,864-729-8330,Medium metro
NEW HORIZON FAMILY HEALTH SVCS.INC.,Greenville,SC,GREENVILLE,Upstate,130 MALLARD ST,,29601,864-233-1534,,864-770-1859,Medium metro
NEW HORIZON FAMILY HLTH SVCS INC,Travelers Rest,SC,GREENVILLE,Upstate,1588 GEER HWY,,29690,864-836-1109,,864-836-6365,Medium metro
NEWBERRY COUNTY HEALTH DEPARTMENT,Newberry,SC,NEWBERRY,Midlands ,2111 WILSON RD,,29108,803-321-2170,,(803)321-2300,Micropolitan
NORFIELD MEDICAL CENTER,Neeses,SC,ORANGEBURG,LowCountry,7061 NORWAY RD,,29107,803-263-4086,,(803)263-4097,Micropolitan
NORTH AREA CLINIC,Charleston Heights,SC,CHARLESTON,LowCountry,3963 WHIPPER BARONY LN,,29405,843-740-1580,,,Medium metro
NORTH AUGUSTA PEDIATRICS LLC,North Augusta,SC,EDGEFIELD,Midlands ,140 Allen CT,,29860,803-510-0007,,,Medium metro
NORTH BERKELEY FAMILY CARE,Saint Stephen,SC,BERKELEY,LowCountry,137 CEDAR ST,,29479,843-567-4000,,843-567-3000,Medium metro
NORTH CENTRAL FAM MEDICAL CENTER,Chester,SC,CHESTER,Midlands ,102 CESTRIAN SQUARE,,29706,8033258742,,803-327-7464,Large fringe metro
NORTH CENTRAL FAMILY MEDICAL CTR,Rock Hill,SC,YORK,Midlands ,1131 SALUDA ST,,29730,8033257744,,(803)325-1117,Large fringe metro
NORTH GREENVILLE OUT PT PED CLINIC,Travelers Rest,SC,GREENVILLE,Upstate,807 N MAIN ST,,29690,864-455-9260,,864-455-9264,Medium metro
NORTH HILLS MEDICAL CENTER,Greer,SC,GREENVILLE,Upstate,319 S BUNCOMBE RD,,29651,864-877-3883,,864-877-7937,Medium metro
NORTH HILLS MEDICAL CENTER,Mauldin,SC,GREENVILLE,Upstate,309 W BUTLER RD,,29662,864-297-1575,,,Medium metro
Northlake Family Medical Practice,COLUMBIA,SC,RICHLAND,Midlands ,115 Blarney DR #101-C,,29223-,803-419-5131,,8038657109,Medium metro
Oakbrook Pediatrics,Summerville,SC,DORCHESTER,LowCountry,202 Bentons Lodge RD,,29485,843-871-2588,,843-871-1664,Medium metro
OB GYN CLINIC,Greenville,SC,GREENVILLE,Upstate,1120 Grove Rd Ste B,,29605,864-455-8897,,864-455-6598,Medium metro
OCONEE COUNTY HEALTH DEPT S,Seneca,SC,OCONEE,Upstate,609 N TOWNVILLE ST,,29678,864-882-2245,,,Micropolitan
OCONEE MEDICAL CENTER,Seneca,SC,OCONEE,Upstate,298 MEMORIAL DR,,29672,8648857241,,(864)885-7990,Micropolitan
OCONEE PEDIATRICS,Seneca,SC,OCONEE,Upstate,15579 WELLS HWY,,29678,864-882-7800,,(864)882-5908,Micropolitan
ORANGEBURG COUNTY HEALTH DEPARTMENT,Orangeburg,SC,ORANGEBURG,LowCountry,1550 CAROLINA AVE,,29115,803-533-5480,,(803)268-5814,Micropolitan
PACOLET FAMILY MEDICINE,Pacolet,SC,SPARTANBURG,Upstate,7221 S PINE ST,,29372,864-474-1528,,(864)474-1049,Medium metro
PAGELAND FAMILY MEDICINE,Pageland,SC,CHESTERFIELD,Pee Dee ,301 N VAN LINGLE MUNGO BLVD,,29728,843-672-3151,,843-672-5448,Non-Core
PALMETTO FAMILY MED OF CHESTERFIELD,Cheraw,SC,CHESTERFIELD,Pee Dee ,316 2ND ST,,29520,843-921-4851,,843-921-4854,Non-Core
Palmetto Health Richland,Columbia,SC,RICHLAND,Midlands ,5 Richland Medical Park DR,,29203,803-434-2569,,(803)434-3030,Medium metro
PALMETTO HEALTH RICHLAND FAM MED CT,Columbia,SC,RICHLAND,Midlands ,3209 COLONIAL DR,,29203,803-434-6113,,(803)434-6562,Medium metro
PALMETTO HEALTH SPECIAL CARE CENTER,Columbia,SC,RICHLAND,Midlands ,14 MEDICAL PARK,Ste 310,29203,803-434-2300,,(803)434-8600,Medium metro
Palmetto Health USC Family Medicine,Sumter,SC,SUMTER,Pee Dee ,738 W LIBERTY ST,STE A,29150,803-775-6374,,803-773-6429,Small metro
PALMETTO PED  ADOLES CLINIC,Irmo,SC,RICHLAND,Midlands ,7428 BROAD RIVER RD,,29063,803-732-0140,,(803)732-4848,Medium metro
PALMETTO PED  ADOLES CLINIC,Lexington,SC,LEXINGTON,Midlands ,1970 AUGUSTA HWY,,29072,8033582370,,,Medium metro
PALMETTO PEDIATRIC  ADOLESCENT CLINIC,Columbia,SC,RICHLAND,Midlands ,601 CLEMSON RD,,29229,803-788-4886,,803-788-5020,Medium metro
PALMETTO PEDIATRICS,Columbia,SC,RICHLAND,Midlands ,121 Blythewood Rd,,29016,803-788-6360,,(803)788-6668,Medium metro
PALMETTO PEDIATRICS,Columbia,SC,RICHLAND,Midlands ,140 PARK CENTRAL DR,,29203,803-779-4001,,(803)252-9458,Medium metro
PALMETTO PEDIATRICS,ROCK HILL,SC,YORK,Midlands ,2450 INDIA HOOK RD,,29732-4973,8033275772,,,Large fringe metro
PALMETTO PEDIATRICS,Hilton Head Island,SC,BEAUFORT,LowCountry,23 MAIN ST,STE 301,29926,843-342-5437,,,Small metro
PALMETTO PEDIATRICS  CONWAY,Conway,SC,HORRY,Pee Dee ,140 PROFESSIONAL PARK DR,,29526,843-234-5678,,(843)234-4567,Medium metro
PALMETTO PEDIATRICS  PA,North Charleston,SC,CHARLESTON,LowCountry,2781 TRICOM ST,,29406,843-797-5600,,,Medium metro
PALMETTO PEDIATRICS CENTER,Aiken,SC,AIKEN,Midlands ,60 Physician DR STE 100,,29801,803-641-5437,,803-641-9981,Medium metro
PALMETTO PEDS - WEST,Spartanburg,SC,SPARTANBURG,Upstate,8311 WARREN H ABERNATHY HWY,,29301,864-560-9600,,864-560-9613,Medium metro
PALMETTO PEDS OF THE LOWCTRY  LLC,Okatie,SC,BEAUFORT,LowCountry,4 OKATIE CTR BLVD S,STE 201,29909,843-706-3206,,,Small metro
Palmetto Primary Care,North Charleston,SC,CHARLESTON,LowCountry,9313 Medical Plaza DR,,29406,843-725-3525,,,Medium metro
PALMETTO PRIMARY CARE  DR. SAMUEL S,Saint Stephen,SC,BERKELEY,LowCountry,104 FUNK AVE,,29479,843-567-3206,,,Medium metro
PALMETTO PRIMARY CARE PHY. - LAUREL,Summerville,SC,DORCHESTER,LowCountry,507 N LAUREL ST,,29483,843-875-0600,,,Medium metro
PALMETTO PRIMARY CARE PHYS,Bonneau,SC,BERKELEY,LowCountry,1401 MAIN ST,,29431,843-825-3404,,,Medium metro
PALMETTO PRIMARY CARE PHYSICIANS,Summerville,SC,DORCHESTER,LowCountry,1101 Old Trolley RD,,29485,843-832-2021,,,Medium metro
PALMETTO PRIMARY CARE PHYSICIANS,North Charleston,SC,CHARLESTON,LowCountry,9313 MEDICAL PLAZA DR,Ste 202,29406,843-572-1200,,,Medium metro
PALMETTO PRIMARY CARE PHYSICIANS,Summerville,SC,DORCHESTER,LowCountry,809 N CEDAR ST,,29483,843-871-9440,,843-871-5932,Medium metro
PALMETTO PRIMARY CARE PHYSICIANS,Summerville,SC,DORCHESTER,LowCountry,213 W 4TH N ST,,29483,843-873-0681,,843-873-0681,Medium metro
PALMETTO PRIMARY CARE PHYSICIANS,SUMMERVILLE,SC,DORCHESTER,LowCountry,412 N GUM ST,,29483,843-873-1720,,,Medium metro
PALMETTO PRIMARY CARE PHYSICIANS,Moncks Corner,SC,BERKELEY,LowCountry,115 EXECUTIVE PKWY,,29461,843-761-2815,,(843)899-4723,Medium metro
PALMETTO PRIMARY CARE PHYSICIANS,North Charleston,SC,CHARLESTON,LowCountry,5325 APPIAN WAY,,29420,8435520400,,,Medium metro
PALMETTO PRIMARY CARE PHYSICIANS,GOOSE CREEK,SC,BERKELEY,LowCountry,7 S ALLIANCE DR,Ste 201 A,29445,843-553-4383,,,Medium metro
PALMETTO PRIMARY CARE PHYSICIANS,GOOSE CREEK,SC,BERKELEY,LowCountry,105 SPRING HALL DR,,29445,843-574-0060,,,Medium metro
PALMETTO PRIMARY CARE PHYSICIANS,HAMPTON,SC,HAMPTON,LowCountry,300 MAPLE ST WEST,,29924,803-943-3813,,(803)943-5971,Non-Core
PALMETTO PRIMARY CARE PHYSICIANS,WALTERBORO,SC,COLLETON,LowCountry,457 SPRUCE ST,,29488,843-782-4100,,,Non-Core
Palmetto Primary Care Physicians Oakbrook,Summerville,SC,BERKELEY,LowCountry,90 Springview LN,,29485,843-832-9113,,(843)832-9114,Medium metro
"Palmetto Primary Care, North Charleston",North Charleston,SC,CHARLESTON,LowCountry,2550 Elms Center Rd.,,29406,843-302-8828,,843-569-5882,Medium metro
PARKSIDE PEDIATRICS,Piedmont,SC,ANDERSON,Upstate,30 HALTER DR,,29673,8642720388,,,Medium metro
Parkside Pediatrics,Simpsonville,SC,GREENVILLE,Upstate,312 Harrison Bridge RD,,29680,864-272-0388,,864-213-9237,Medium metro
PARKSIDE PEDIATRICS,Greenville,SC,GREENVILLE,Upstate,"525 Verdae Blvd, STE 200",,29607,864-272-0388,,864-213-9237,Medium metro
PARKSIDE PEDIATRICS,Spartanburg,SC,SPARTANBURG,Upstate,2430 Reidville Rd # 102,,29301,8642720388,,8642139237,Medium metro
PARKSIDE PEDIATRICS,Simpsonville,SC,GREENVILLE,Upstate,211 BATESVILLE RD,,29681,864-272-0388,,864-213-9237,Medium metro
Parkside Pediatrics Greer ,Greer,SC,GREENVILLE,Upstate,145 E Poinsett St,,29651,(864)272-0388,,(864)213-9237,Medium metro
PARKWEST PEDIATRICS LLC,MOUNT PLEASANT,SC,CHARLESTON,LowCountry,3400 SALTERBECK ST,STE 101,29466,8432160201,,,Medium metro
Parkwood Pediatric Group,Charleston,SC,CHARLESTON,LowCountry,1243 Savannah Hwy.,,29407,843-556-8110,,,Medium metro
PARKWOOD PEDS AT DANIEL ISLAND,Daniel Island,SC,CHARLESTON,LowCountry,109 RIVER LANDING DR,Ste 101,29492,843-856-5074,,,Medium metro
PEACH TREE MEDICAL CENTER,RIDGE SPRING,SC,SALUDA,Midlands ,906 W MAIN ST,,29129-0000,803-685-7355,,,Medium metro
PEDIATIC ASSOCIATES-GREER,Greer,SC,GREENVILLE,Upstate,106 Physicians DR,,29650,864-797-9100,,864-797-9105,Medium metro
Pediatric Associates  P.A.,Columbia,SC,RICHLAND,Midlands ,2601 Laurel St. Suite 250,,29204,803-799-9044,,(803) 256-8119,Medium metro
PEDIATRIC ASSOCIATES - KERSHAW CTY.,Elgin,SC,KERSHAW,Midlands ,40 PINNACLE PKWY,STE 206,29045,803-432-1931,,803-438-4020,Medium metro
PEDIATRIC ASSOCIATES -KERSHAW CTY,Camden,SC,KERSHAW,Midlands ,1346 HAILE ST,,29020,803-432-1931,,803-432-1176,Medium metro
Pediatric Associates Easley,Easley,SC,PICKENS,Upstate,800 N A ST,,29640,864-855-0001,,864-855-5030,Medium metro
Pediatric Associates of Florence,Florence,SC,FLORENCE,Pee Dee ,204 E Cheves Street,,29506,843-777-5065,,843-777-7620,Small metro
PEDIATRIC ASSOCIATES OF FLORENCE,Florence,SC,FLORENCE,Pee Dee ,3013B W Palmetto St,,29501,843-777-9340,,843-777-9341,Small metro
PEDIATRIC ASSOCIATES OF FLORENCE,Florence,SC,FLORENCE,Pee Dee ,3013-A W PALMETTO ST,,29501,843-777-7627,,843-777-7630,Small metro
Pediatric Associates Simpsonville,Simpsonville,SC,GREENVILLE,Upstate,1409 W GEORGIA RD,STE A,29680,864-454-5062,,864-454-6065,Medium metro
Pediatric Associates Spartanburg,Spartanburg,SC,SPARTANBURG,Upstate,249 North Grove Medical Park Dr Ste 100,,29303,(864)582-8135,,(864)573-9757,Medium metro
PEDIATRIC ASSOCIATES-POWDERSVILLE,Greenville,SC,GREENVILLE,Upstate,207 THREE BRIDGES RD,,29611,864-220-1110,,864-855-5030,Medium metro
PEDIATRIC CENTER,Greer,SC,GREENVILLE,Upstate,111 MEMORIAL DR,,29650,864-848-7005,,864-848-3666,Medium metro
PEDIATRIC INFECTIOUS DISEASE,Greenville,SC,GREENVILLE,Upstate,200 PATEWOOD DR,Ste A 200,29615,864-454-5130,,864-454-5698,Medium metro
Pediatric Specialties of the Upstate-Anderson,Anderson,SC,ANDERSON,Upstate,"2000 E Greenville ST , STE 3500",,29621,(864)716-6490,,(864)716-6492,Medium metro
Pediatric Specialties Spartanburg,Spartanburg,SC,SPARTANBURG,Upstate,249 N Grove Medical Park DR,Ste 200,29303,864-573-8732,,(864)598-0421,Medium metro
PEDIATRICS OF BATESBURG-LEESVILLE,Batesburg,SC,LEXINGTON,Midlands ,120 W CHURCH ST,STE E,29006,803-532-2208,,803.604.0207,Medium metro
PEDIATRICS OF NEWBERRY,Newberry,SC,NEWBERRY,Midlands ,2525 KINARD ST,,29108,803-405-0220,,(803)405-0222,Micropolitan
PEE DEE FAMILY PRACTICE,Lake City,SC,FLORENCE,Pee Dee ,276 N Ron McNair BLVD,,29560,843-394-5471,,843-394-5459,Small metro
PEE DEE FAMILY PRACTICE,Johnsonville,SC,FLORENCE,Pee Dee ,625 S GEORGETOWN HWY,,29555,843-386-3106,,843-386-3791,Small metro
PELICAN PEDIATRICS ,Charleston,SC,CHARLESTON,LowCountry,452 FOLLY RD,STE 5,29412,8437953344,,,Medium metro
PELION FAMILY PRACTICE,Pelion,SC,LEXINGTON,Midlands ,8063 EDMUND HWY,,29123,803-894-3736,,,Medium metro
PICKENS COUNTY HEALTH DEPARTMENT,Pickens,SC,PICKENS,Upstate,200 MCDANIEL AVE,,29671,864-898-5965,,(864)898-5823,Medium metro
PIEDMONT CHILDRENS CLINIC  P.A.,Anderson,SC,ANDERSON,Upstate,2000 E GREENVILLE ST,STE 4700,29621,864-222-1891,,,Medium metro
PIEDMONT FAMILY PRACTICE  INC.,PIEDMONT,SC,ANDERSON,Upstate,115 BEATTIE PK RD,,29673,8648453331,,,Medium metro
PIEDMONT HEALTH GROUP  L.L.C.,Hodges,SC,GREENWOOD,Upstate,3410 COKESBURY RD,,29653,864-227-2099,,(864)227-1779,Micropolitan
PIEDMONT PEDIATRICS,Clinton,SC,LAURENS,Upstate,996 MEDICAL RIDGE RD,,29325,864-833-5654,,864-833-2786,Medium metro
Pinner Clinic  PA,Peak,SC,NEWBERRY,Midlands ,32 River St,,29122,803-345-3298,,(803)345-2832,Micropolitan
PLANNED PARENTHOOD HEALTH SYSTEMS,CHARLESTON,SC,CHARLESTON,LowCountry,200 RUTLEDGE AVE,,29403,8436284380,,,Medium metro
PLANNED PARENTHOOD HLTH SYSTEMS,COLUMBIA,SC,RICHLAND,Midlands ,2712 MIDDLEBURG DR,STE 107,29204,803-256-4908,,803-256-4900,Medium metro
Plantation Pediatrics dba Neighbors Pediatrics,Charleston,SC,CHARLESTON,LowCountry,1871 Savage RD,,29407,843-766-6308,,,Medium metro
PLANTATION PEDIATRICS dba Neighbors Pediatrics,Goose Creek,SC,BERKELEY,LowCountry,105B Springhall DR,,29445,843-766-6308,,843-533-4473,Medium metro
PORT ROYAL MEDICAL CTR - B J H,Port Royal,SC,BEAUFORT,LowCountry,1320 S RIBAUT RD,,29935,843-986-0900,,,Small metro
POWDERSVILLE FAMILY PRACTICE,EASLEY,SC,ANDERSON,Upstate,10701 ANDERSON RD,,29642,864-295-2500,,,Medium metro
POWDERSVILLE MEDICAL PARK,Greenville,SC,GREENVILLE,Upstate,15 ROE RD,,29611,864-295-2308,,864-295-2635,Medium metro
Powdersville Primary Care,Easley,SC,ANDERSON,Upstate,290 Enterprise DR,,29642,864-365-0290,,8643650291,Medium metro
PPCP-PINE ST DR BRIAN KELLER FAM PR,Summerville,SC,DORCHESTER,LowCountry,404 N PINE ST,,29483,843-873-0202,,,Medium metro
Prime Health Solutions,Lyman,SC,SPARTANBURG,Upstate,206 Elliott Rd,,29365,(864)485-2172,,(864)457-2736,No Urbanicity Data
Primecare Pediatrics,Lancaster,SC,LANCASTER,Midlands ,838 W Meeting St STE E,,29720,803-285-2244,,803-285-2299,Large fringe metro
Prisma Health,Piedmont,SC,ANDERSON,Upstate,1115 WREN SCHOOL RD,,29673,8648590740,,8648599008,Medium metro
PRISMA HEALTH - SQUIRES POINT,Duncan,SC,SPARTANBURG,Upstate,500 Squires Pt Ste A,,29334,(864)968-5126,,(864)968-5128,Medium metro
Prisma Health CHILDRENS HOSP OUTPT CTR,Columbia,SC,RICHLAND,Midlands ,14 RICHLAND MEDICAL PK,STE 400,29203,803-434-6157,,(803)434-6979,Medium metro
PRISMA HEALTH PED MULTI CLINIC,Columbia,SC,RICHLAND,Midlands ,9 Richland Medical Park Dr,Suite 450,29203,8034347995,,8037580139,No Urbanicity Data
Prisma Health-Upstate-Greenville Pharmacy,Greenville,SC,GREENVILLE,Upstate,701 GROVE RD,,29605,864-455-3001,,864-455-3630,Medium metro
Prisma Hlth Fountain Inn ,Fountain Inn,SC,GREENVILLE,Upstate,200 N Nelson DR,,29644,864-522-6270,,864-522-6275,Medium metro
REGENESIS COMMUNITY HEALTH CENTER,Spartanburg,SC,SPARTANBURG,Upstate,750 S CHURCH ST,,29306,864-582-2411,,(864)-582-7179,Medium metro
REGENESIS COMMUNITY HLTH CTR,Gaffney,SC,CHEROKEE,Upstate,1341 N LIMESTONE ST,,29340,864-902-1000,,864-487-8734,Micropolitan
ReGenesis Health Care Park Hills,Spartanburg,SC,SPARTANBURG,Upstate,301 Crescent AVE,,29306,(864)596-8442,,(864)582-7178,Medium metro
REGENESIS HEALTH CARE WOODRUFF,Woodruff,SC,SPARTANBURG,Upstate,220 IRBY ST,,29388,864-670-9415,,(864)582-7178,Medium metro
"ReGenesis Health Care, Inc",Spartanburg,SC,GREENVILLE,Upstate,460 Langdon ST,,29304,864-582-2817,,(864)582-7178,Medium metro
RICE PLANTER PEDIATRICS LLC,Walterboro,SC,COLLETON,LowCountry,406 ROBERTSON BLVD,,29488,843-782-5437,,,Non-Core
RICHLAND COUNTY HEALTH DEPARTMENT,Columbia,SC,RICHLAND,Midlands ,2000 HAMPTON ST,,29204,803-576-2835,,(803)576-2985,Medium metro
RIDGE SPRING FAMILY PRACTICE CENTER,Ridge Spring,SC,AIKEN,Midlands ,201 AIKEN RD,,29129,803-685-3100,,803-849-8522,Medium metro
RIDGELAND MEDICAL CTR - BJH,RIDGELAND,SC,JASPER,LowCountry,1520 GRAYS HWY,,29936-0000,843-726-3979,,,Small metro
RIDGEWAY Pediatrics and  FAMILY PRACTICE,Ridgeway,SC,FAIRFIELD,Midlands ,755 US HWY 21 S,,29130,803-337-2920,,803-337-3010,Medium metro
Riverside Pediatrics ,Kingstree,SC,WILLIAMSBURG,Pee Dee ,402 nelson blvd Ste #100,,29556,(843)833-8595,,(843)833-8599,Non-Core
Riverside Pediatrics ,Georgetown,SC,GEORGETOWN,Pee Dee ,435 Marina DR,,29440,(843)833-8595,,(843)833-8599,Micropolitan
RMC Primary Care Bamberg,Bamberg,SC,BAMBERG,LowCountry,498 NORTH ST,,29003,803-395-3600,,803-245-6277,Non-Core
RMC PRIMARY CARE HOLLY HILL,Holly Hill,SC,ORANGEBURG,LowCountry,187 BUNCH FORD RD,,29059,(803)395-3068,,(803)496-7713,Micropolitan
ROCK HILL HEALTH DEPARTMENT,Rock Hill,SC,YORK,Midlands ,1070 HECKLE BLVD,,29732,803-909-7300,,,Large fringe metro
Rock Hill Pediatric Associates,Rock Hill,SC,YORK,Midlands ,1656 Riverchase BLVD STE 3400,,29730,803-328-6281,,803-329-1053,Large fringe metro
ROCK HILL PEDIATRIC ASSOCIATES FM,Fort Mill,SC,YORK,Midlands ,704 GOLD HILL RD,STE 207,29715,803-802-5900,,803-802-7101,Large fringe metro
ROSA CLARK MEDICAL CLINIC,Seneca,SC,OCONEE,Upstate,301 Memorial Dr Ste E,,29672,864-8824664,,864-882-4478,Micropolitan
RSF Primary Care,Summerville,SC,DORCHESTER,LowCountry,9500 Dorchester Rd. STE 362,,29485,(843) 212-8080,,,Medium metro
RSFPP PRIMARY CARE WAPC,Charleston,SC,CHARLESTON,LowCountry,2270 ASHLEY CROSSING DR,Ste 170,29414,843-763-3700,,(843)763-3714,Medium metro
Rural Health Services,Aiken,SC,AIKEN,Midlands ,1000 Clyburn PL,,29801,803-380-7000,,,Medium metro
SALERNO PEDIATRIC CARE LLC,Hilton Head,SC,BEAUFORT,LowCountry,35 BILL FRIES DR,Ste I,29926,843-342-7337,,,Small metro
SALUDA COUNTY HEALTH DEPARTMENT,Saluda,SC,SALUDA,Midlands ,613 NEWBERRY HWY 121 N,,29138,864-445-2141,,,Medium metro
SALUDA FAMILY PRACTICE CTR,Saluda,SC,SALUDA,Midlands ,219 GREENWOOD HWY,,29138,864-445-2181,,(864)445-9554,Medium metro
SANDHILLS MED.FOUND.- SUMTER,Sumter,SC,SUMTER,Pee Dee ,30 Cuttino Road,,29150,803-778-2442,,803-778-0880,Small metro
SANDHILLS MEDICAL FOUNDATION,Lugoff,SC,KERSHAW,Midlands ,40 BALDWIN AVE,,29078,803-408-3262,,803-408-8895,Medium metro
SANDHILLS MEDICAL FOUNDATION,McBee,SC,CHESTERFIELD,Pee Dee ,645 S 7th St,,29101,843-335-8291,,843-335-8731,Non-Core
SANDHILLS MEDICAL FOUNDATION Jefferson,Jefferson,SC,CHESTERFIELD,Pee Dee ,409 E CHURCH ST,,29718,(843)658-3005,,(843)658-7780,Non-Core
Sandhills Medical Foundation Kershaw,Kershaw,SC,LANCASTER,Midlands ,205 W MARION ST,,29067,803-475-4701,,,Large fringe metro
Sandhills Pediatrics,Columbia,SC,RICHLAND,Midlands ,1749 Marshall ST,,29203,803-252-1801,,(803)252-9132,Medium metro
SANDHILLS PEDIATRICS - DUTCHFORK,Irmo,SC,RICHLAND,Midlands ,7941 BROAD RIVER RD,,29063,803-407-0704,,803-407-2529,Medium metro
SANDHILLS PEDIATRICS - LEXINGTON,Lexington,SC,LEXINGTON,Midlands ,4568 SUNSET BLVD,,29072,803-520-5144,,,Medium metro
SANDHILLS PEDIATRICS - NORTHEAST,Columbia,SC,RICHLAND,Midlands ,110 SUMMIT CENTRE DR,,29229,803-744-9000,,803-744-9008,Medium metro
SANDHILLS PEDIATRICS WEST COLUMBIA,West Columbia,SC,LEXINGTON,Midlands ,2318 SUNSET BLVD,,29169,803-796-9200,,,Medium metro
SANDLAPPER PEDIATRICS,MOUNT PLEASANT,SC,CHARLESTON,LowCountry,1400 Hospital DR,,29464,8432169901,,,Medium metro
SANTEE FAMILY MEDICAL CENTER,SANTEE,SC,ORANGEBURG,LowCountry,130 CIR PLZ,,29142-0000,803-854-3940,,,Micropolitan
SC DEPART OF JUV JUSTICE,Columbia,SC,RICHLAND,Midlands ,1725 SHIVERS RD,,29210,803-896-5747,,803-896-5748,Medium metro
SC DEPART OF JUVENILE JUSTICE WILLO,Columbia,SC,RICHLAND,Midlands ,4650 BROAD RIVER RD,BLDG 2014,29210,803-896-9459,,803-896-7678,Medium metro
SC DEPT JUV JUS UPSTATE EVAL CTR,Union,SC,UNION,Upstate,1585 JONESVILLE HWY,,29379,864-429-3610,,(864)429-8324,Medium metro
SC DEPT OF JUVENILE JUSTICE- DJJ,Ridgeville,SC,DORCHESTER,LowCountry,331 CAMPBELL THICKETT RD,,29472,843-821-3073,,,Medium metro
SC SCHOOL FOR THE DEAF  BLIND,Spartanburg,SC,SPARTANBURG,Upstate,355 CEDAR SPRINGS RD,,29302,8645777672,,(864)577-7629,Medium metro
SCDJJ-MIDLANDS EVALUATION CENTER,Columbia,SC,RICHLAND,Midlands ,1721 SHIVERS RD,,29210,803-896-7468,,803-896-7666,Medium metro
Sea Island Pediatrics,Bluffton,SC,BEAUFORT,LowCountry,29 Plantation Park Dr #201,,29910,843-757-7700,,,Small metro
SEA ISLAND PEDIATRICS  P.A.,Beaufort,SC,BEAUFORT,LowCountry,2403 ALLISON RD,,29902,843-524-1078,,,Small metro
Seashore Pediatrics  P.C.,Loris,SC,HORRY,Pee Dee ,2828 Bayboro ST,,29569,843-716-2229,,843-716-2483,Medium metro
SEASHORE PEDIATRICS  P.C.,Longs,SC,HORRY,Pee Dee ,170 SURFRIDER BLVD UNITS A&B,,29568,843-390-2229,,843-390-2483,Medium metro
Seaside Family Medicine,Summerville,SC,BERKELEY,LowCountry,"1341 College Park RD , STE A",,29483,843-400-0028,,(843)790-8449,Medium metro
SEASIDE PEDIATRICS,Mount Pleasant,SC,CHARLESTON,LowCountry,309 WINGO WAY,Ste 101,29464,8438812484,,,Medium metro
Seaside Pediatrics,Hilton Head,SC,BEAUFORT,LowCountry,15 Hospital Center CMNS,,29926,843-757-8663,,,Small metro
Seaside Pediatrics of Bluffton,Hilton Head,SC,BEAUFORT,LowCountry,15 Hospital Center CMNS STE 100A,,29926,(843)757-8663,,(843)682-2663,Small metro
Seaside Pediatrics of Bluffton  PC,Bluffton,SC,BEAUFORT,LowCountry,167 BLUFFTON RD STE G,,29910,843-757-8663,,,Small metro
SEE Alternatives Pediatrics,Johns Island,SC,CHARLESTON,LowCountry,3227 Walter Dr Ste C1,,29455,843.920.0046,,843.920.0001,Medium metro
Self Medical Group Family Healthcare South Saluda,Saluda,SC,SALUDA,Midlands ,102 R L SAWYER MD DR,,29138,864-445-2173,,(864)445-6383,Medium metro
SELF REGIONAL HEALTHCARE,Greenwood,SC,GREENWOOD,Upstate,1325 SPRING ST,,29646,864-725-5079,,(864)725-4102,Micropolitan
SENECA MEDICAL ASSOCIATES,Seneca,SC,OCONEE,Upstate,11082 N RADIO STATION RD,,29678,8648822314,,(864)882-3677,Micropolitan
SENTINEL HEALTH PARTNERS,Camden,SC,KERSHAW,Midlands ,1344 HAILE ST,,29020,803-432-1996,,803-432-1996,Medium metro
SENTINEL HEALTH PARTNERS-KERSHAW,Kershaw,SC,LANCASTER,Midlands ,216 E MARION ST,,29067,803-475-3475,,803-475-5360,Large fringe metro
SINGLETON HEALTH CENTER,Orangeburg,SC,ORANGEBURG,LowCountry,1773 VILLAGE PARK DR,,29118,803-535-3600,,(803)534-6300,Micropolitan
SMG Family Healthcare at Tower Pointe,Greenwood,SC,GREENWOOD,Upstate,105 VINE CREST CT,Ste 600,29646,8642272900,,(864)227-6487,Micropolitan
SMG-Pediatric Associates Greenwood,Greenwood,SC,GREENWOOD,Upstate,102 Katie CT,,29646,8649434279,,(864)223-2642,Micropolitan
Southern Med Pediatrics,Fort Mill,SC,YORK,Midlands ,"342 Patricia Lane, STE 105",,29708,803-431-7490,,803-4317491,Large fringe metro
Southern Med Pediatrics,Columbia,SC,RICHLAND,Midlands ,237 Longtown RD,,29229,(803)404-5638,,(803)404-5639,Medium metro
Southern Med Pediatrics Northeast Farrow,Columbia,SC,RICHLAND,Midlands ,120 Highland Center Dr Ste 100,STE 100,29203,803-788-0577,,(803)788-5760,Medium metro
Southern Med Peds,Orangeburg,SC,ORANGEBURG,LowCountry,1740 VILLAGE PARK DR,,29118,803-928-5525,,(803)928-5505,Micropolitan
SOUTHERN MEDICAL ASSOCIATES,Loris,SC,HORRY,Pee Dee ,3418 CASEY ST,,29569,843-756-7885,,843-756-7855,Medium metro
SouthernMed Pediatrics,Columbia,SC,RICHLAND,Midlands ,6108 GARNERS FERRY RD,,29209,803-647-1265,,(803)647-1266,Medium metro
SouthernMed Pediatrics,Lexington,SC,LEXINGTON,Midlands ,448 Old Cherokee RD,,29072,8035205800,,,Medium metro
SouthernMed Pediatrics,Batesburg-Leesville,SC,LEXINGTON,Midlands ,"141 E Church ST , STE C",,29070,803-520-9261,,803-520-9262,Medium metro
Southernmed Pediatrics - Aiken,Aiken,SC,AIKEN,Midlands ,206 CENTRE SOUTH BLVD,,29803,803-642-9204,,,Medium metro
SouthernMed Pediatrics Southlake,Lexington,SC,LEXINGTON,Midlands ,1633 S Lake Dr,,29073,803-520-9370,,803-520-9371,Medium metro
SPARTANBURG CO HLTH DEPT,Spartanburg,SC,SPARTANBURG,Upstate,151 E WOOD ST,,29305,864-596-2227,,,Medium metro
Spartanburg Regional Health Service,Spartanburg,SC,SPARTANBURG,Upstate,101 E Wood ST,,29303,864-560-0213,,864-560-7026,Medium metro
SPRINGHALL FAMILY PRACTICE,GOOSE CREEK,SC,BERKELEY,LowCountry,110-A SPRINGHALL DR,,29445-0000,843-266-2520,,,Medium metro
ST GEORGE MEDICAL CENTER,Saint George,SC,DORCHESTER,LowCountry,401 RIDGE ST,,29477,843-563-5315,,843-563-8229,Medium metro
ST HELENA MED CTR - BJH,SAINT HELENA ISLAND,SC,BEAUFORT,LowCountry,33 PENN CENTER RD,,29920-0000,843-838-2086,,,Small metro
ST JAMES SANTEE FAMILY HEALTH CENTER PEDIATRICS,Georgetown,SC,GEORGETOWN,Pee Dee ,57 JESSAMINE AVE SUITE,,29440,843-546-8686,,843-546-1353,Micropolitan
ST JAMES-SANTEE FAMILY HEALTH CENTE,Georgetown,SC,GEORGETOWN,Pee Dee ,422 N Frasier ST,,29440,843-436-1333,,843-436-1335,Micropolitan
ST. GEORGE FAMILY PRACTICE,Saint George,SC,DORCHESTER,LowCountry,202 RIDGE ST,,29477,843-563-6000,,,Medium metro
St. James Santee FHC,Andrews,SC,GEORGETOWN,Pee Dee ,675 N MorganAvenue,,29510,843-264-2680,,843-264-2690,Micropolitan
ST. JAMES- SANTEE FAMILY HEALTH CEN,McClellanville,SC,CHARLESTON,LowCountry,1189 TIBWIN RD,,29458,(843) 887-3274,,,Medium metro
ST. LUKE'S FAMILY PRACTICE,MOUNT PLEASANT,SC,CHARLESTON,LowCountry,1435 STUART ENGALS BLVD,,29464-3305,8438849796,,,Medium metro
ST. MATTHEWS FAMILY HEALTH CTR. INC,St. Matthews,SC,CALHOUN,LowCountry,558 CHESTNUT ST,,29135,803-874-2006,,,Medium metro
STERLING SHARPE PEDIATRIC CENTER- E,Columbia,SC,RICHLAND,Midlands ,4605 MONTICELLO RD,,29203,803-252-7001,,803-252-6415,Medium metro
Summerville Family Practice Associa,Summerville,SC,DORCHESTER,LowCountry,435 N Cedar St,,29483,843-873-1592,,843-871-2936,Medium metro
SUMMERVILLE HEALTH DEPT,Summerville,SC,DORCHESTER,LowCountry,500 N MAIN ST,,29483,843-832-0041,,,Medium metro
Summerville Pediatrics  PA,Summerville,SC,DORCHESTER,LowCountry,312 Midland PKWY,,29485,843-875-6262,,,Medium metro
Summerville Primary Care,SUMMERVILLE,SC,DORCHESTER,LowCountry,299-A MIDLAND PKWY,,29485,843-875-7901,,,Medium metro
SUMTER COUNTY HEALTH DEPARTMENT,Sumter,SC,SUMTER,Pee Dee ,105 N MAGNOLIA ST,,29150,803-773-5511,,803-775-7163,Small metro
Sumter Pediatrics  P.A.,Sumter,SC,SUMTER,Pee Dee ,237 Church ST,,29150,803-775-6311,,803-778-5131,Small metro
SUNSHINE PEDIATRICS,Rock Hill,SC,YORK,Midlands ,724 ARDEN LN STE 100,,29732,803-980-7337,,(803)980-2229,Large fringe metro
SWEETGRASS PEDIATRICS,Summerville,SC,DORCHESTER,LowCountry,748 ORANGEBURG RD,,29483,843-832-8606,,843-285-7272,Medium metro
Sweetgrass Pediatrics,Summerville,SC,BERKELEY,LowCountry,2016 1st AVE,,29486,843-873-4545,,843-873-1561,Medium metro
Sweetgrass Pediatrics - Park West,Mt. Pleasant,SC,CHARLESTON,LowCountry,1115 Professional LN,,29466,(843)216-0201,,(843)284-8303,Medium metro
SWEETGRASS PEDIATRICS LLC,Charleston,SC,CHARLESTON,LowCountry,2713 dantzler DR,,29406,843-764-1722,,,Medium metro
SWEETGRASS PEDIATRICS LLC,Charleston,SC,CHARLESTON,LowCountry,12 Farmfield Ave STE F,,29407,843-764-1722,,843-764-1788,Medium metro
Sweetgrass Pediatrics Mt Pleasant,Mount Pleasant,SC,CHARLESTON,LowCountry,1156 Bowman RD,Ste 105,29464,(843)873-4545,,(843)764-1788,Medium metro
Sweetgrass Pediatrics Park West,Mount Pleasant,SC,CHARLESTON,LowCountry,3400 Salterbeck St #101,,29466,843-216-0201,,,Medium metro
SWEETGRASS PEDIATRICS-MONCKS CORNER,Moncks Corner,SC,BERKELEY,LowCountry,401 N LIVE OAK ST,STE B,29461,843-764-1722,,,Medium metro
SYCAMORE HEALTH CARE  LLC,Sycamore,SC,ALLENDALE,LowCountry,7205 BUFORDS BRIDGE HWY,,29846,803-632-3900,,(803)632-3901,Non-Core
Tandem Health,Sumter,SC,SUMTER,Pee Dee ,370 S Pike West,,29150,803-774-2347,,803-774-2347,Small metro
THE CHILDRENS CENTER,Greenwood,SC,GREENWOOD,Upstate,113 LINER DR,,29646,864-941-8170,,(864)941-8194,Micropolitan
THE CHILDRENS CLINIC,Lancaster,SC,LANCASTER,Midlands ,1003 W MEETING ST,,29720,803-289-5437,,803-289-5440,Large fringe metro
THE CHILDRENS CLINIC-GREENVILLE,Greenville,SC,GREENVILLE,Upstate,890 S PLEASANTBURG DR,,29607,864-271-1450,,864-271-3914,Medium metro
THE CHILDRENS GROUP,Hartsville,SC,DARLINGTON,Pee Dee ,604 N Fifth ST,,29550,843-332-6645,,843-332-9894,Small metro
THE FAMILY HEALTHCARE CENTER,Laurens,SC,LAURENS,Upstate,22580 HWY 76 E,,29360,8648335986,,,Medium metro
THE MEDICAL GROUP,Hartsville,SC,DARLINGTON,Pee Dee ,701 MEDICAL PARK DR,Ste 207,29550,843-383-5191,,843-332-9229,Small metro
THE MEDICAL GROUP - ELDER,HARTSVILLE,SC,DARLINGTON,Pee Dee ,701 MEDICAL PK DR,STE 204,29550,8433832273,,,Small metro
THE MEDICAL PLACE FAMILY PRACTICE,West Columbia,SC,LEXINGTON,Midlands ,3020 SUNSET BLVD,STE 101,29169,803-791-5680,,,Medium metro
THE PEDIATRIC CLINIC,Orangeburg,SC,ORANGEBURG,LowCountry,"940 Holly ST , N.E.",,29115,803-534-1481,,(803)534-3118,Micropolitan
The Pediatric Clinic - Laurel Street,Orangeburg,SC,ORANGEBURG,LowCountry,630 Laurel St,,29115,(803)536-2725,,(803)534-3118,Micropolitan
THE PEDIATRIC TEAM CENTER,EASLEY,SC,PICKENS,Upstate,1807 E MAIN ST,,29640,864-442-7482,,864-306-7977,Medium metro
The Point Teen Health Center  Tobias,Spartanburg,SC,SPARTANBURG,Upstate,154 George Washington Carver Dr,,29305,864.598.6092,,864.598.6092,Medium metro
TIDELANDS FAMILY MED GEORGETOWN,Georgetown,SC,GEORGETOWN,Pee Dee ,1075 N FRASER ST,,29440,843-527-4442,,843-527-4027,Micropolitan
Tidelands Health Family Medicine,Myrtle Beach,SC,HORRY,Pee Dee ,4320 Holmestown RD,,29588,(843)652-8440,,,Medium metro
Tidelands Health Pediatrics Group,Myrtle Beach,SC,HORRY,Pee Dee ,4320 Holmestown RD UNIT B,,29588,(843)652-8455,,(843)652-0201,Medium metro
"Tiffany Pediatrics, P.A.",Aiken,SC,AIKEN,Midlands ,215 Town Creek RD,,29803,803-508-7651,,803-508-7655,Medium metro
Tiger Pediatrics,Easley,SC,PICKENS,Upstate,4741 Highway 153 Ste A,,29642,864-661-5278,,864-408-8369,Medium metro
TRI COUNTY PEDIATRICS,Rock Hill,SC,YORK,Midlands ,165 AMENDMENT DR,Ste 102,29732,803-329-2700,,803-329-2788,Large fringe metro
TRI-COUNTY PEDIATRICS,York,SC,YORK,Midlands ,815 E LIBERTY ST,,29745,8036282728,,(803)628-2722,Large fringe metro
TRIDENT FAMILY HEALTH,North Charleston,SC,CHARLESTON,LowCountry,9228 MEDICAL PLAZA DR,,29406,843-574-2294,,,Medium metro
UNION COUNTY HEALTH DEPARTMENT,Union,SC,UNION,Upstate,115 THOMAS ST,,29379,864-429-1690,,(864) 429-1697,Medium metro
Unity Health and Wellness LLC,Daniel Island,SC,BERKELEY,LowCountry,225 Seven Farms DR,Ste 201,29492,(843)557-5154,,(843)377-8390,Medium metro
UNITY HEALTH ON MAIN ,Greenville,SC,GREENVILLE,Upstate,505 C N MAIN ST,,29601,864-232-2734,,864-232-8126,Medium metro
UNIV MED GRP DEPT OF OBGYN,Greenville,SC,GREENVILLE,Upstate,1350A Cleveland St,,29607,864-455-1600,,864-522-4455,Medium metro
UNIVERSAL CTR FOR PED  ADOL MED  L,HILTON HEAD ISLAND,SC,BEAUFORT,LowCountry,843 WILLIAM HILTON PKWY,,29928,843-682-4300,,,Small metro
UNIVERSITY FAMILY MEDICINE,Columbia,SC,RICHLAND,Midlands ,4311 HARD SCRABBLE RD,,29229,803-419-6334,,(803)788-6574,Medium metro
UNIVERSITY MEDICAL ASSOCIATES  LLC,Greenville,SC,GREENVILLE,Upstate,1809 WADE HAMPTON BLVD,STE 120,29609,864-522-5000,,864-241-9275,Medium metro
UNIVERSITY OF S.C.  SPARTANBURG,Spartanburg,SC,SPARTANBURG,Upstate,995 UNIVERSITY WAY,,29303,864-503-5191,,864-503-0754,Medium metro
UPTOWN FAMILY PRACTICE,Greenwood,SC,GREENWOOD,Upstate,313 MAIN St,STE A,29646,8642294446,,(864)229-8037,Micropolitan
USC SCHOOL OF MED DIV OF PED PULMON,Columbia,SC,RICHLAND,Midlands ,9 RICHLAND MED PK,STE 505,29203,803-434-2505,,(803)434-2181,Medium metro
VALCOURT PEDIATRIC - COLLETON,Walterboro,SC,COLLETON,LowCountry,124 Medical Park Dr.,,29488,8435992255,,,No Urbanicity Data
VALCOURT PEDIATRIC ASSOCIATES,Aiken,SC,AIKEN,Midlands ,410 BARNWELL AVE NW,,29801,(803)226-0005,,(706)955-4638,Medium metro
Valcourt Pediatric Associates,Walterboro,SC,COLLETON,LowCountry,124 Medical Park Dr,,29488,843-782-3636,,,Non-Core
VALCOURT PEDIATRICS ASSOCIATES,HARDEEVILLE,SC,JASPER,LowCountry,176 Dermis Ave STE,Ste 104,29927,843-784-3636,,(843)784-3637,Small metro
VANCE COMMUNITY MEDICAL CENTER,Vance,SC,ORANGEBURG,LowCountry,10278 OLD 6 HWY,,29163,803-492-3031,,(803)492-9156,Micropolitan
Village Family Practice ,Greenwood,SC,GREENWOOD,Upstate,420 Epting Ave, Suite  B,29646,8648890404,,8648890408,Micropolitan
VOLUNTEERS IN MEDICINE CLINIC,Hilton Head Island,SC,BEAUFORT,LowCountry,15 NORTHRIDGE DR,,29926,843-681-6612,,,Small metro
W. Hugh Morgan MD Family Practice,Johnston,SC,EDGEFIELD,Midlands ,801 Mobley St,,29832,803-275-4653,,,Medium metro
WACCAMAW COMMUNITY HOSPITAL,Murrells Inlet,SC,GEORGETOWN,Pee Dee ,4070 HWY 17 BYP,,29576,843-652-1243,,843-652-1717,Micropolitan
WACCAMAW MEDICAL CENTER,Pawleys Island,SC,GEORGETOWN,Pee Dee ,9699 OCEAN HWY,,29585,843-237-4296,,843-237-0495,Micropolitan
WALTERBORO ADULT  PEDIATRIC MEDICINE,Walterboro,SC,COLLETON,LowCountry,447 SPRUCE ST,,29488,843-549-6331,,843-549-6332,Non-Core
WALTERBORO MEDICAL CENTER  PA,Walterboro,SC,COLLETON,LowCountry,107 CHURCH ST,,29488,843-549-1558,,,Non-Core
WARE SHOALS FAMILY PRACTICE,WARE SHOALS,SC,GREENWOOD,Upstate,85 S GREENWOOD AVE,,29692-0389,8644567436,,,Micropolitan
WELLNESS FAMILY MEDICINE,SPARTANBURG,SC,SPARTANBURG,Upstate,1241 BOILING SPRINGS RD,,29303,864-591-0992,,864-591-0776,Medium metro
WELLSPRING FAMILY MEDICINE,Columbia,SC,RICHLAND,Midlands ,110 ATRIUM WAY,,29223,803-865-9655,,(803)865-9653,Medium metro
WEST ASHLEY FAMILY MEDICINE  LLC,CHARLESTON,SC,CHARLESTON,LowCountry,1481 TOBIAS GADSON BLVD,STE 1,29407,8434020367,,,Medium metro
WEST FLORENCE FAMILY PRACTICE,FLORENCE,SC,FLORENCE,Pee Dee ,1925 HOFFMEYER RD,,29501,8436794214,,,Small metro
WILLIAMSBURG COUNTY HEALTH DEPT.,Kingstree,SC,WILLIAMSBURG,Pee Dee ,520 THURGOOD MARSHALL BLVD,STE A,29556,843-355-6012,,843-355-9590,Non-Core
WILLIAMSBURG REGIONAL HEALTH CENTER,Kingstree,SC,WILLIAMSBURG,Pee Dee ,500 Thurgood Marshall BLVD,Ste F,29556,8433551772,,8433551775,Non-Core
Williston Family Medicine ,Williston,SC,BARNWELL,Midlands ,13975 Church St,,29853,(803)266-0060,,(803)266-0042,Non-Core
WINNSBORO PEDIATRICS AND FAMILY PRA,Winnsboro,SC,FAIRFIELD,Midlands ,1136 KINCAID BRIDGE RD,STE A,29180,803-635-1052,,,Medium metro
YORK HEALTH DEPARTMENT,York,SC,YORK,Midlands ,116 N CONGRESS ST,,29745,803-684-7004,,8036841103,Large fringe metro
YORK PEDIATRICS  LLC,Rock Hill,SC,YORK,Midlands ,1538 HEALTH CARE DR,,29732,803-980-6610,,803-980-6162,Large fringe metro